{"type":"FeatureCollection","frame":{"width":1152,"height":748.8,"y":"down"},"note":"FL congressional plan first used 2022 (28 districts), Dave's Redistricting export, simplified by mapshaper, projected with the shared conus_proj and fitted so FL fills the frame. FL-2022 and FL-2026 share this fit and overlay exactly.","features":[{"type":"Feature","properties":{"st":"FL","district":1,"name":{},"label_x":248.1,"label_y":98.4},"geometry":{"type":"Polygon","coordinates":[[[303.6,43.6],[294.3,44.5],[288.4,45.1],[280.5,45.8],[265.9,47.5],[261.6,47.7],[249.5,48.9],[246.4,49],[235.6,50],[225.8,50.9],[219.2,51.4],[205.3,52.6],[195.9,53.8],[194.5,53.8],[171.9,55.8],[160.7,56.9],[162,60.4],[161.9,62.1],[160.6,65.4],[160.1,67.9],[159.5,68.5],[159.7,69.6],[158.9,70.5],[158.5,72.2],[159.6,73.4],[159.6,74.3],[160.8,75.6],[161.9,75.9],[162.3,77],[164.2,77.8],[168.2,81.4],[168.1,82.1],[169.2,83.3],[169.4,84.6],[173,87.5],[175,87.8],[175.9,89.1],[177.5,89.8],[178.3,89.6],[179.3,90.5],[182.8,92],[183.4,93.9],[183.9,94.1],[184.6,97.2],[184.3,99.6],[183.6,100.1],[183.6,102.3],[182.8,104.6],[182,105.3],[180.5,108.9],[180.4,111],[182.3,112.4],[181.9,114.3],[182.6,115.4],[184.2,116.8],[186.1,117.4],[188.7,117.6],[188.9,119.2],[185.4,122.2],[183.6,122.3],[182.4,124.5],[182.7,125.6],[181.7,127],[181.8,129.6],[180.9,131],[179.9,131.5],[177.2,132.1],[176.8,134.2],[177.9,134.8],[179,134.7],[182.3,133.7],[182.1,135],[175.8,137.4],[177.4,155.4],[180.9,154.2],[186.7,152.4],[190.8,151.3],[198.2,148.6],[200.6,148.7],[205.8,148],[210.8,146.9],[216.1,145.5],[226.5,142.2],[235.5,139.5],[241.6,137.7],[246.7,136.4],[255.4,134.6],[262.5,133.5],[267.4,133.5],[272.5,134],[274.6,134.1],[278.8,133.4],[281.9,133.2],[287.9,133.4],[291.9,133.8],[295.8,134.4],[303.3,136.1],[308.6,137.4],[306.8,118.6],[306.3,114],[308.3,107.2],[310.1,105.3],[310,103.7],[312,100.9],[311.5,95.9],[313.4,95.8],[313.1,92.4],[311.2,92.6],[310.5,88.5],[309.6,86],[309.5,82.3],[308.5,80.8],[308.4,79.5],[307.5,79.6],[307.3,77.7],[305.6,77.6],[304.8,77.1],[304.9,74.7],[304.4,74],[305,73],[305,71.4],[306.2,70.6],[304.4,70.1],[305.1,68.5],[305,66.8],[307.3,66.9],[306.6,64],[306.9,59.5],[306.7,58],[305.8,56.7],[303.9,51.1],[303.6,47.6],[303.6,43.6]]]}},{"type":"Feature","properties":{"st":"FL","district":2,"name":{},"label_x":446.9,"label_y":121.4},"geometry":{"type":"Polygon","coordinates":[[[308.6,137.4],[311.8,138.1],[319.5,140.5],[326.6,143.1],[334.4,146.7],[338.9,149.1],[340.6,150.2],[343.1,152.4],[348.1,155.5],[350.4,156.6],[354.5,158.3],[357.8,159.3],[363.1,164],[366.4,166.5],[370.9,169.1],[371.8,174.4],[372.9,178.1],[374.3,182.1],[376,186.1],[377.6,189.5],[379.2,192.2],[382.4,196.5],[383.9,198.2],[386.2,200.2],[388.7,201.9],[390.5,202.8],[393.8,203.8],[396.5,204.2],[400.2,203.9],[402.3,203.4],[405.1,202.3],[407.5,200.9],[410,202.4],[413.7,203.9],[416.2,204.5],[419.8,206.9],[423,208.1],[427.3,208.7],[430.7,208.4],[433.7,207.5],[435.7,206.7],[444.1,202.8],[446.8,201.1],[452.4,196.6],[454.2,195.4],[456.9,194.1],[459.9,192.5],[463.4,190],[466,187.8],[467.5,186.1],[472.3,180],[476.1,178.1],[480.2,175.5],[482.4,173.8],[484.2,171.9],[486.5,168.3],[487.5,166],[490.4,166],[493.1,165.7],[497.8,164.4],[500.9,163],[503.6,161.1],[506.3,158.4],[508,155.8],[509.6,152],[510.4,148.4],[510.7,145.8],[510.6,143.1],[514,142.3],[519.7,139.8],[522.7,141.9],[525,143],[529.6,144.7],[531.7,146.7],[533.5,148],[536.6,149.5],[540.1,150.4],[544.6,150.4],[548.3,152],[549.9,153.2],[552.7,157],[554.1,161.3],[555.7,164],[558.9,168.2],[561.5,170.5],[563.2,171.6],[566.2,172.9],[569.3,173.8],[572.8,176.2],[574,180.2],[587.7,162.5],[589.3,161.3],[590.6,161.7],[592.6,161.8],[592.8,160.4],[593.6,158.4],[593.4,157],[593.8,154.7],[593.4,152.8],[594.1,150.7],[595.5,148.5],[594.9,143.5],[591.5,144],[590.5,136.6],[588.8,136.8],[587.1,124.1],[585.4,109.5],[592.8,108.5],[591.8,99.9],[592.2,96.8],[591.9,94.4],[593.1,94.1],[593.4,93.3],[595.9,93],[596.5,88.4],[598.1,86.7],[597.5,85.6],[598,84.6],[597.3,83.1],[598.7,82.5],[599,81.3],[598.9,79.3],[600.6,77.4],[599.5,75.2],[597.9,74.6],[596.8,75.1],[595.4,74.3],[595.5,73.7],[594.7,71],[595.1,70.5],[594.1,69.2],[592.3,68.9],[592.3,66.6],[591.7,64.6],[592.1,63.8],[591,61.4],[589.5,60.1],[589.8,59.3],[589.1,58.3],[588.8,57],[589.4,56.3],[587.9,53.6],[587.2,51.8],[585.1,51.9],[583.5,51.5],[564.7,52.7],[552.5,53.6],[534.4,54.8],[527.4,55.3],[518,55.9],[491,57.8],[478.8,58.6],[469.1,59.5],[462.9,59.8],[452.4,60.4],[430.7,61.9],[429.5,60.2],[428.5,59.7],[427,57.8],[425.7,57.9],[424.6,56.4],[424.6,55],[423.4,53.4],[423.3,52.2],[422.3,50.6],[422.2,48.8],[423,48.1],[422.1,46.7],[422,45.2],[421.3,44.3],[421.6,43],[420.8,42.7],[419.2,40.7],[418.1,39.7],[417.4,38.5],[416.2,37.8],[416.1,34.8],[415.4,34.1],[413.7,33.8],[413.5,30.6],[390,33.3],[377.8,34.9],[359.8,37.2],[340.9,39.4],[328.4,41],[316.8,42.3],[303.6,43.6],[303.6,47.6],[303.9,51.1],[305.8,56.7],[306.7,58],[306.9,59.5],[306.6,64],[307.3,66.9],[305,66.8],[305.1,68.5],[304.4,70.1],[306.2,70.6],[305,71.4],[305,73],[304.4,74],[304.9,74.7],[304.8,77.1],[305.6,77.6],[307.3,77.7],[307.5,79.6],[308.4,79.5],[308.5,80.8],[309.5,82.3],[309.6,86],[310.5,88.5],[311.2,92.6],[313.1,92.4],[313.4,95.8],[311.5,95.9],[312,100.9],[310,103.7],[310.1,105.3],[308.3,107.2],[306.3,114],[306.8,118.6],[308.6,137.4]]]}},{"type":"Feature","properties":{"st":"FL","district":3,"name":{},"label_x":656.3,"label_y":140.4},"geometry":{"type":"Polygon","coordinates":[[[574,180.2],[575,184.4],[576,187.5],[577.9,190.8],[579.9,193.1],[583.1,195.5],[585.7,196.7],[590.5,198.4],[592.4,200.3],[594.3,201.7],[599.4,204.3],[600,207.1],[601.7,210.7],[604.1,213.9],[606.6,216],[610.6,218],[610.7,220.7],[611.1,222.7],[612.2,226],[613.5,228.3],[617,233.1],[620.6,236.1],[639.2,233.3],[662.8,229.7],[663.3,228.5],[665.7,226.6],[667.2,224.6],[669.3,223.9],[670.8,224.6],[673.8,224.7],[677.4,225.6],[678.3,225],[678.9,223],[680.6,223],[681.8,222],[682.5,222.1],[684.4,220.5],[686,220.9],[688.2,220.4],[689,219.1],[690.1,218.9],[693.9,220.3],[695.3,221.7],[696.6,222.5],[698.1,221.8],[699.2,222.7],[701.9,222.9],[702.5,223.8],[707.4,225.4],[708.1,226.9],[726.7,224.2],[723.3,219.5],[721.6,215.8],[718.6,211.4],[718,206.9],[722.7,205.9],[722.6,204.6],[728.3,203.8],[729.2,202],[729.3,199.5],[728.9,197],[729.7,196.8],[729,194.8],[727.8,195],[727.6,193.8],[720.3,194.8],[719.2,192.9],[717.7,182],[719.5,175.9],[720.3,174.6],[720.6,173.1],[720.2,170.4],[721.6,170.8],[723,169.4],[724.1,170],[725.4,168.9],[724.3,161.8],[722.7,150.4],[722,146],[721.7,143.2],[721.4,137.6],[721.3,134.3],[717.9,112.8],[716.9,106],[716.5,104.1],[715.1,94.6],[712.7,78.4],[710.6,65],[709.2,65.7],[706.3,65.8],[705.2,65.1],[703.9,65.7],[701.8,66],[699.8,67.1],[699,67.1],[697.2,65],[696.4,65.2],[695.1,63],[693.9,60.1],[694.2,58.1],[693.6,56.2],[694,54.4],[693.8,53.3],[692,51.4],[691.1,51.1],[690.3,49],[689.4,48.3],[689.4,45.5],[691.1,44],[670.8,45.4],[654.2,46.6],[638.5,47.8],[626.8,48.6],[606.6,50],[583.5,51.5],[585.1,51.9],[587.2,51.8],[587.9,53.6],[589.4,56.3],[588.8,57],[589.1,58.3],[589.8,59.3],[589.5,60.1],[591,61.4],[592.1,63.8],[591.7,64.6],[592.3,66.6],[592.3,68.9],[594.1,69.2],[595.1,70.5],[594.7,71],[595.5,73.7],[595.4,74.3],[596.8,75.1],[597.9,74.6],[599.5,75.2],[600.6,77.4],[598.9,79.3],[599,81.3],[598.7,82.5],[597.3,83.1],[598,84.6],[597.5,85.6],[598.1,86.7],[596.5,88.4],[595.9,93],[593.4,93.3],[593.1,94.1],[591.9,94.4],[592.2,96.8],[591.8,99.9],[592.8,108.5],[585.4,109.5],[587.1,124.1],[588.8,136.8],[590.5,136.6],[591.5,144],[594.9,143.5],[595.5,148.5],[594.1,150.7],[593.4,152.8],[593.8,154.7],[593.4,157],[593.6,158.4],[592.8,160.4],[592.6,161.8],[590.6,161.7],[589.3,161.3],[587.7,162.5],[574,180.2]]]}},{"type":"Feature","properties":{"st":"FL","district":4,"name":{},"label_x":731.9,"label_y":73.8},"geometry":{"type":"Polygon","coordinates":[[[765.1,116.5],[763,113.3],[762,111],[761.4,108.9],[761.9,106.2],[761.6,104.6],[760.3,102.8],[758.7,101.7],[753.7,99.5],[752.4,98.6],[751.6,97.4],[750.9,93.5],[751.5,91.1],[750.8,86.8],[749.3,84.6],[749,81.2],[749.7,80],[749.7,78.9],[752,74.8],[751.5,72.7],[748.2,69.6],[747.7,68.5],[749,67],[748.7,64.8],[749.5,63.8],[752.4,64.3],[753.3,62.6],[754.7,61.3],[754.4,59.5],[753.8,58.3],[754.8,57.9],[758.2,57.3],[759,56.3],[758.3,55.2],[762.5,53.6],[763.3,53.8],[766.6,53.1],[768.8,54],[769.8,53.2],[771,51.1],[772.4,51],[774.5,51.3],[781.5,50.3],[781.3,49],[780.2,47.2],[778.7,45.9],[777.1,45.2],[776.8,42.1],[776.1,40],[773.5,35.8],[772.4,32.4],[771.6,28.2],[771.2,25.2],[771.4,21.1],[772.6,19.3],[773.3,16.3],[773,15.1],[767.5,15.9],[764.9,16.8],[761.7,17],[760.6,16.8],[758.9,15.7],[756.7,16.4],[754.7,16.7],[754.5,18.4],[753.1,17.5],[752.4,18.3],[751,17.4],[747.7,17.3],[747.8,18.2],[746.1,18],[744.5,17],[743.6,17.9],[743,16.4],[741,15.9],[740.9,17],[739.4,16.9],[738.9,16.2],[736.5,16.9],[735,16.5],[733.9,15],[730.9,14.1],[729.6,14.6],[728.4,13.3],[727.1,13.1],[724.8,13.5],[722.5,13.2],[721,13.7],[719.6,13.1],[718.4,10.7],[717.3,10],[716.6,11.7],[714.8,11.8],[712.6,10.9],[711.4,12.2],[711.9,14.6],[711.2,16.7],[709.6,16.9],[708,15.8],[706.7,16],[706.1,17],[707.6,19.3],[706.3,20.7],[705.4,20.5],[705.5,23.9],[706.2,25.9],[705.9,28.5],[705.4,29.4],[707.1,34.1],[709.9,37.4],[711.1,40.2],[711.5,41.8],[710.8,45.3],[711.6,47.6],[711.5,48.7],[712,51.8],[711.2,54.2],[711.3,55.1],[710.7,56.2],[711.2,58.2],[710.4,58.8],[710.4,60.2],[711.3,61.8],[711.7,63.7],[710.6,65],[712.7,78.4],[715.1,94.6],[716.5,104.1],[716.9,106],[717.9,112.8],[721.3,134.3],[721.4,137.6],[723.4,137.3],[723.8,136.4],[725.2,134.6],[728.1,133.3],[731.8,132.7],[732.4,131.6],[732.8,128.7],[733.9,127.1],[735.7,126.3],[738.6,125.4],[742,122.1],[742.7,120.8],[751.1,119.5],[765.4,117],[765.1,116.5]]]}},{"type":"Feature","properties":{"st":"FL","district":5,"name":{},"label_x":769.7,"label_y":82.9},"geometry":{"type":"Polygon","coordinates":[[[781.5,50.3],[774.5,51.3],[772.4,51],[771,51.1],[769.8,53.2],[768.8,54],[766.6,53.1],[763.3,53.8],[762.5,53.6],[758.3,55.2],[759,56.3],[758.2,57.3],[754.8,57.9],[753.8,58.3],[754.4,59.5],[754.7,61.3],[753.3,62.6],[752.4,64.3],[749.5,63.8],[748.7,64.8],[749,67],[747.7,68.5],[748.2,69.6],[751.5,72.7],[752,74.8],[749.7,78.9],[749.7,80],[749,81.2],[749.3,84.6],[750.8,86.8],[751.5,91.1],[750.9,93.5],[751.6,97.4],[752.4,98.6],[753.7,99.5],[758.7,101.7],[760.3,102.8],[761.6,104.6],[761.9,106.2],[761.4,108.9],[762,111],[763,113.3],[765.1,116.5],[769.1,115.9],[771.2,114.8],[774.1,114.4],[776.9,113.5],[783.3,111.8],[785.4,115.6],[786.3,113.8],[789.5,115.9],[791.1,114.9],[790.7,112.7],[792.6,112.3],[792.9,113.8],[794.2,113.3],[795.2,112.3],[796.3,114.6],[802.2,111.5],[801.2,107.4],[799,102.4],[797.5,100.2],[794.5,94],[789.4,80.4],[784.4,68.3],[783.9,66.5],[781.9,61.4],[780.8,57.2],[780.3,54.5],[781.4,52.4],[781.5,50.3]]]}},{"type":"Feature","properties":{"st":"FL","district":6,"name":{},"label_x":778.9,"label_y":174.2},"geometry":{"type":"Polygon","coordinates":[[[799.1,229.9],[799.2,228.8],[799.9,227.5],[802.1,225.2],[802.5,223.6],[803.3,222.5],[803.2,220.6],[804.2,219.6],[803.4,218.7],[803.8,216.8],[805.8,216.9],[804.9,210.6],[806.6,210.4],[806.6,209.3],[807.7,209.1],[808.3,210.2],[810.2,210.4],[812.7,211.6],[813.3,206.5],[814.2,204.3],[816.2,203.7],[819.2,202],[825.4,201.8],[828.9,202.6],[827.5,194.8],[826.9,192.5],[828.7,192],[828.2,190.1],[828.6,189.6],[830.5,189.9],[830.5,188.9],[829.3,187.8],[830.4,187.4],[830.2,185.9],[832,185.5],[833.2,186.3],[833.9,185.5],[835.4,185.7],[836.7,184.9],[835.2,183],[835.9,182.5],[834.2,180.2],[834.1,179.4],[838.6,176.2],[837.3,173.8],[831.4,164.7],[825.2,154.7],[825.5,154.6],[819.6,144.5],[817.1,141],[814.9,137.4],[810.8,130],[809.2,126.8],[808,123.9],[805.5,120],[802.6,113.3],[802.2,111.5],[796.3,114.6],[795.2,112.3],[794.2,113.3],[792.9,113.8],[792.6,112.3],[790.7,112.7],[791.1,114.9],[789.5,115.9],[786.3,113.8],[785.4,115.6],[783.3,111.8],[776.9,113.5],[774.1,114.4],[771.2,114.8],[769.1,115.9],[765.1,116.5],[765.4,117],[751.1,119.5],[742.7,120.8],[742,122.1],[738.6,125.4],[735.7,126.3],[733.9,127.1],[732.8,128.7],[732.4,131.6],[731.8,132.7],[728.1,133.3],[725.2,134.6],[723.8,136.4],[723.4,137.3],[721.4,137.6],[721.7,143.2],[722,146],[722.7,150.4],[724.3,161.8],[725.4,168.9],[724.1,170],[723,169.4],[721.6,170.8],[720.2,170.4],[720.6,173.1],[720.3,174.6],[719.5,175.9],[717.7,182],[719.2,192.9],[720.3,194.8],[727.6,193.8],[727.8,195],[729,194.8],[729.7,196.8],[728.9,197],[729.3,199.5],[729.2,202],[728.3,203.8],[722.6,204.6],[722.7,205.9],[718,206.9],[718.6,211.4],[721.6,215.8],[723.3,219.5],[726.7,224.2],[743.5,221.7],[744.8,229.9],[753.7,228.6],[755.2,229],[756,227.3],[759.4,228.4],[760.2,228.3],[763.6,230],[764.8,230.9],[765.9,232.7],[771.5,231.7],[770.4,233.5],[772.4,233.7],[772.9,237.1],[775.2,236.1],[776.4,235.9],[777,236.7],[782.3,235.9],[782.2,234.5],[785.2,232.9],[787.9,232.4],[788.9,231.8],[790.8,231.5],[792.1,230.6],[793.5,230.4],[794.8,231.1],[796.5,230.8],[797.9,230.1],[799.1,229.9]]]}},{"type":"Feature","properties":{"st":"FL","district":7,"name":{},"label_x":837.3,"label_y":214.5},"geometry":{"type":"Polygon","coordinates":[[[799.1,229.9],[800.1,232.5],[800.4,235.6],[800.1,238.6],[798.6,241.5],[796.9,242],[798.1,250.2],[798.3,250.2],[807.9,248.7],[811.2,248.2],[811.7,251.5],[818.3,250.4],[837.6,247.2],[847.9,245.5],[845.6,232.8],[844.4,225.7],[854.3,224],[867.7,221.8],[874.6,220.8],[867.2,212.2],[861.9,205.9],[851.6,193.1],[847.9,188.7],[844,184.9],[842.2,182.1],[838.6,176.2],[834.1,179.4],[834.2,180.2],[835.9,182.5],[835.2,183],[836.7,184.9],[835.4,185.7],[833.9,185.5],[833.2,186.3],[832,185.5],[830.2,185.9],[830.4,187.4],[829.3,187.8],[830.5,188.9],[830.5,189.9],[828.6,189.6],[828.2,190.1],[828.7,192],[826.9,192.5],[827.5,194.8],[828.9,202.6],[825.4,201.8],[819.2,202],[816.2,203.7],[814.2,204.3],[813.3,206.5],[812.7,211.6],[810.2,210.4],[808.3,210.2],[807.7,209.1],[806.6,209.3],[806.6,210.4],[804.9,210.6],[805.8,216.9],[803.8,216.8],[803.4,218.7],[804.2,219.6],[803.2,220.6],[803.3,222.5],[802.5,223.6],[802.1,225.2],[799.9,227.5],[799.2,228.8],[799.1,229.9]]]}},{"type":"Feature","properties":{"st":"FL","district":8,"name":{},"label_x":883.6,"label_y":291.6},"geometry":{"type":"Polygon","coordinates":[[[841.1,265.1],[849.3,263.8],[851.8,266.4],[853.6,269.4],[854.6,270.2],[858.7,271.5],[861.4,271.4],[861.5,272.4],[862.8,273.7],[864.7,285],[867.5,303.2],[866.8,303.3],[868.6,314.7],[871.6,332.7],[870.3,332.9],[872.1,342.8],[872.7,342.7],[874.4,352.9],[884,351.3],[885.6,360.7],[895.4,359.2],[900.9,358.2],[921,355.1],[937.3,352.4],[934.3,345.5],[932.6,343.7],[932.2,342.2],[927.2,331.9],[920.9,322.5],[917.4,317.3],[913.6,312.1],[909.3,306.1],[904,298.1],[897.6,281.1],[896,277.1],[895.8,269.7],[896.2,263.3],[899.4,258.8],[900.1,255.5],[899.6,253.3],[898.5,251.2],[895,246.3],[894,243.5],[891.9,239],[881,227.9],[879.4,226.4],[874.6,220.8],[867.7,221.8],[854.3,224],[844.4,225.7],[845.6,232.8],[847.9,245.5],[837.6,247.2],[837.1,247.9],[837.2,250.8],[836.5,251.4],[836,254.8],[837.3,255.6],[839.9,258.5],[841.1,265.1]]]}},{"type":"Feature","properties":{"st":"FL","district":9,"name":{},"label_x":833.4,"label_y":308.9},"geometry":{"type":"Polygon","coordinates":[[[874.4,352.9],[872.7,342.7],[872.1,342.8],[870.3,332.9],[871.6,332.7],[868.6,314.7],[866.8,303.3],[867.5,303.2],[864.7,285],[862.8,273.7],[861.5,272.4],[861.4,271.4],[858.7,271.5],[854.6,270.2],[853.6,269.4],[851.8,266.4],[849.3,263.8],[841.1,265.1],[836.4,265.9],[824.3,267.9],[823.1,265.7],[822,262.3],[821.5,261.5],[818.5,262],[815.9,261.3],[815.1,262],[807.9,263.3],[806.6,263.9],[807.4,268.5],[807.2,272.5],[805.2,274.3],[801.1,274.9],[800.6,275.6],[800.5,276.4],[796,284.2],[781.8,286.4],[784.9,296.6],[786.7,295.9],[788.7,296],[791,296.7],[792.8,296.5],[794.6,296.7],[797.3,297.7],[799.3,300.5],[800.3,307.1],[798.8,308.4],[799.4,309.5],[799.4,311.3],[801.1,313.1],[801.7,314.9],[802.6,316.4],[801.3,317.2],[801.6,319.3],[803.4,319.9],[809.1,319],[810.6,318],[812,319.2],[813.1,321.3],[816.4,320.6],[817.5,322.1],[817.9,323.2],[820.8,324.4],[821.1,325.5],[822.4,325.8],[822.2,327.8],[825.7,328.5],[825.4,330.9],[826.6,332.5],[827,334],[828,335.3],[829.6,335.3],[829.9,335.9],[831.8,336.2],[833.2,335.7],[835,336.2],[836.8,337.5],[838.6,340.1],[839.3,341.4],[840.8,343.2],[841.9,344.1],[841.8,345.5],[843.2,346.3],[843.2,348.3],[845.8,349.6],[845.6,350.5],[846.6,354.2],[848.2,355.1],[848.2,356.5],[847.3,357.1],[855.1,356],[874.4,352.9]]]}},{"type":"Feature","properties":{"st":"FL","district":10,"name":{},"label_x":828.4,"label_y":261.4},"geometry":{"type":"Polygon","coordinates":[[[798.3,250.2],[798.3,250.9],[795.3,251.5],[794.5,252.4],[795.3,256.6],[796,257.5],[796.6,260.6],[795.1,260.8],[796.1,262.4],[795.3,264.6],[796.1,269.4],[797.2,271],[799.1,270.7],[800,271.8],[800.6,275.6],[801.1,274.9],[805.2,274.3],[807.2,272.5],[807.4,268.5],[806.6,263.9],[807.9,263.3],[815.1,262],[815.9,261.3],[818.5,262],[821.5,261.5],[822,262.3],[823.1,265.7],[824.3,267.9],[836.4,265.9],[841.1,265.1],[839.9,258.5],[837.3,255.6],[836,254.8],[836.5,251.4],[837.2,250.8],[837.1,247.9],[837.6,247.2],[818.3,250.4],[811.7,251.5],[811.2,248.2],[807.9,248.7],[798.3,250.2]]]}},{"type":"Feature","properties":{"st":"FL","district":11,"name":{},"label_x":763.7,"label_y":268.6},"geometry":{"type":"Polygon","coordinates":[[[799.1,229.9],[797.9,230.1],[796.5,230.8],[794.8,231.1],[793.5,230.4],[792.1,230.6],[790.8,231.5],[788.9,231.8],[787.9,232.4],[785.2,232.9],[782.2,234.5],[782.3,235.9],[777,236.7],[776.4,235.9],[775.2,236.1],[772.9,237.1],[772.4,233.7],[770.4,233.5],[771.5,231.7],[765.9,232.7],[764.8,230.9],[763.6,230],[760.2,228.3],[759.4,228.4],[756,227.3],[755.2,229],[753.7,228.6],[744.8,229.9],[743.5,221.7],[726.7,224.2],[708.1,226.9],[709.6,227.9],[710,229.1],[712.2,231.9],[712.8,233.4],[716.3,235.3],[716.7,236.4],[717.7,237.4],[718.7,237.7],[720.6,239.4],[723.1,240.6],[723.8,242.6],[724.8,244],[723.6,244.9],[723.5,247.8],[721.8,248.2],[721.3,249.4],[719.7,250.9],[719.6,251.6],[718.2,253.3],[718.5,255.1],[717.7,257.4],[717.8,258.9],[716.7,260.6],[718.4,262.5],[720,263.4],[720.5,264.6],[723,266.9],[723.4,268],[724.7,269.1],[725.7,268.5],[729.1,269.4],[729.9,268.2],[731.8,268.8],[732.8,270.8],[734.1,271.3],[735,270.8],[735.6,271.8],[737.1,272.9],[739.4,271.6],[740.9,272.5],[744.4,297.2],[745.1,302],[745.3,303.3],[750.7,307.3],[752.5,309.8],[754.4,311.1],[754.9,311.8],[755.5,315.5],[758.2,315.1],[758.2,313.3],[760.9,311.4],[761.8,311.2],[761.6,309.6],[764,309.2],[764.2,310.4],[767.1,311.1],[768.8,310.2],[770.4,310],[769.9,308.3],[773.2,307.8],[774.5,308.4],[776.5,306.7],[781.5,303.4],[783.7,301.6],[788.7,296],[786.7,295.9],[784.9,296.6],[781.8,286.4],[796,284.2],[800.5,276.4],[800.6,275.6],[800,271.8],[799.1,270.7],[797.2,271],[796.1,269.4],[795.3,264.6],[796.1,262.4],[795.1,260.8],[796.6,260.6],[796,257.5],[795.3,256.6],[794.5,252.4],[795.3,251.5],[798.3,250.9],[798.3,250.2],[798.1,250.2],[796.9,242],[798.6,241.5],[800.1,238.6],[800.4,235.6],[800.1,232.5],[799.1,229.9]]]}},{"type":"Feature","properties":{"st":"FL","district":12,"name":{},"label_x":696.8,"label_y":272.1},"geometry":{"type":"Polygon","coordinates":[[[708.1,226.9],[707.4,225.4],[702.5,223.8],[701.9,222.9],[699.2,222.7],[698.1,221.8],[696.6,222.5],[695.3,221.7],[693.9,220.3],[690.1,218.9],[689,219.1],[688.2,220.4],[686,220.9],[684.4,220.5],[682.5,222.1],[681.8,222],[680.6,223],[678.9,223],[678.3,225],[677.4,225.6],[673.8,224.7],[670.8,224.6],[669.3,223.9],[667.2,224.6],[665.7,226.6],[663.3,228.5],[662.8,229.7],[639.2,233.3],[620.6,236.1],[624.6,238.2],[626.9,238.9],[629.9,239.2],[631.7,239.2],[637.7,238.5],[641.9,237.2],[645,235.4],[645.2,237.7],[645.9,240.8],[646.7,242.7],[648,245],[649.6,247.1],[649.2,249.5],[649.2,252.1],[649.7,255.6],[650.7,258.3],[652.8,262],[654.6,264.4],[656.1,268.4],[656.8,270.7],[658.2,273.6],[659.5,275.5],[661.7,277.8],[660.8,281.6],[660.8,285.6],[661.6,289],[660.5,292.8],[660.4,296.5],[659.3,303.1],[656.1,304.9],[654,306.7],[652.7,308.2],[651,310.6],[649.6,314.2],[649.1,316.5],[649,320.8],[650,325.7],[663.8,323.6],[667.1,323.2],[673.5,322.2],[686.8,320.3],[698.4,318.7],[697.3,317],[698.5,316.3],[701.6,315.9],[702.8,315.2],[706.7,316],[711.3,315.4],[712,314.7],[711.7,313.6],[712.8,311],[714.6,308.9],[716,308.9],[718.9,308],[718.7,306.1],[720.9,306.1],[722.3,303.7],[722.4,302.7],[721.9,299.4],[722.1,297.9],[725.4,297.4],[725.7,296.5],[727.8,296],[727.9,296.6],[733.2,295.8],[735,297.8],[735.3,298.9],[743.1,302.3],[745.1,302],[744.4,297.2],[740.9,272.5],[739.4,271.6],[737.1,272.9],[735.6,271.8],[735,270.8],[734.1,271.3],[732.8,270.8],[731.8,268.8],[729.9,268.2],[729.1,269.4],[725.7,268.5],[724.7,269.1],[723.4,268],[723,266.9],[720.5,264.6],[720,263.4],[718.4,262.5],[716.7,260.6],[717.8,258.9],[717.7,257.4],[718.5,255.1],[718.2,253.3],[719.6,251.6],[719.7,250.9],[721.3,249.4],[721.8,248.2],[723.5,247.8],[723.6,244.9],[724.8,244],[723.8,242.6],[723.1,240.6],[720.6,239.4],[718.7,237.7],[717.7,237.4],[716.7,236.4],[716.3,235.3],[712.8,233.4],[712.2,231.9],[710,229.1],[709.6,227.9],[708.1,226.9]]]}},{"type":"Feature","properties":{"st":"FL","district":13,"name":{},"label_x":672.3,"label_y":352.5},"geometry":{"type":"Polygon","coordinates":[[[692.6,379.4],[691.7,374.9],[689.3,358.4],[690.7,357.2],[690.3,354.4],[690.6,353],[690.1,352],[688.3,351.7],[688.4,349.8],[687.1,349.4],[686.3,347.5],[685.4,347.6],[684.5,345.2],[690.4,343.5],[689,333.4],[686.8,320.3],[673.5,322.2],[667.1,323.2],[663.8,323.6],[650,325.7],[651.2,329.8],[651.4,331.8],[652.9,338.3],[654.2,341.6],[654.8,345.7],[654.2,350.2],[654.1,355.5],[654.3,358.6],[655.4,363.1],[656.3,365.5],[658.6,369.6],[662.1,374.1],[664.2,375.9],[666.9,377.8],[668,379],[668.1,381.4],[667.6,383.5],[685.5,380.7],[685.7,381.8],[686.9,383.1],[687,384.6],[690.1,382.8],[690.7,381],[690.6,380.2],[692.6,379.4]]]}},{"type":"Feature","properties":{"st":"FL","district":14,"name":{},"label_x":704.3,"label_y":348.5},"geometry":{"type":"Polygon","coordinates":[[[686.8,320.3],[689,333.4],[690.4,343.5],[684.5,345.2],[685.4,347.6],[686.3,347.5],[687.1,349.4],[688.4,349.8],[688.3,351.7],[690.1,352],[690.6,353],[690.3,354.4],[690.7,357.2],[689.3,358.4],[691.7,374.9],[692.6,379.4],[693.1,380],[697.9,379.4],[708,377.8],[711.9,373.9],[712.6,372.7],[714.3,370.3],[715.8,369.8],[716.2,368.5],[715.8,366.8],[719.2,362.4],[719.9,360.4],[719.4,356.8],[719.1,352.8],[718.6,351.2],[722.3,350.6],[721.7,347.6],[722,346.2],[721.5,345.3],[720.2,341.2],[719.4,339.7],[719.1,336.1],[719.8,336],[719.5,334.1],[717.1,333.8],[717,334.6],[715.7,334.6],[714.7,333.3],[714.5,332.5],[705.8,333.6],[703.7,333.6],[701,331.8],[699.6,331.3],[699.3,327.8],[698.3,325.6],[697.8,323.4],[698.4,321],[698.4,318.7],[686.8,320.3]]]}},{"type":"Feature","properties":{"st":"FL","district":15,"name":{},"label_x":727.2,"label_y":319.2},"geometry":{"type":"Polygon","coordinates":[[[698.4,318.7],[698.4,321],[697.8,323.4],[698.3,325.6],[699.3,327.8],[699.6,331.3],[701,331.8],[703.7,333.6],[705.8,333.6],[714.5,332.5],[714.7,333.3],[715.7,334.6],[717,334.6],[717.1,333.8],[719.5,334.1],[719.8,336],[719.1,336.1],[719.4,339.7],[720.2,341.2],[720.9,341.1],[724,342],[736.5,340.2],[746.7,338.7],[748.9,339.5],[750.6,339.3],[752.3,339],[753.2,339.3],[753.9,337.5],[755.8,337.2],[755.6,335.6],[756.8,335.4],[756.6,333.8],[758.2,333.5],[759.3,332.5],[759.6,331.7],[758.1,321.9],[756.1,319.6],[755.5,315.5],[754.9,311.8],[754.4,311.1],[752.5,309.8],[750.7,307.3],[745.3,303.3],[745.1,302],[743.1,302.3],[735.3,298.9],[735,297.8],[733.2,295.8],[727.9,296.6],[727.8,296],[725.7,296.5],[725.4,297.4],[722.1,297.9],[721.9,299.4],[722.4,302.7],[722.3,303.7],[720.9,306.1],[718.7,306.1],[718.9,308],[716,308.9],[714.6,308.9],[712.8,311],[711.7,313.6],[712,314.7],[711.3,315.4],[706.7,316],[702.8,315.2],[701.6,315.9],[698.5,316.3],[697.3,317],[698.4,318.7]]]}},{"type":"Feature","properties":{"st":"FL","district":16,"name":{},"label_x":723.7,"label_y":380.5},"geometry":{"type":"Polygon","coordinates":[[[762.4,420],[760.4,405.4],[758.3,391],[756.3,376.9],[753.2,356.3],[752,347.4],[751.7,346.2],[750.6,339.3],[748.9,339.5],[746.7,338.7],[736.5,340.2],[724,342],[720.9,341.1],[720.2,341.2],[721.5,345.3],[722,346.2],[721.7,347.6],[722.3,350.6],[718.6,351.2],[719.1,352.8],[719.4,356.8],[719.9,360.4],[719.2,362.4],[715.8,366.8],[716.2,368.5],[715.8,369.8],[714.3,370.3],[712.6,372.7],[711.9,373.9],[708,377.8],[697.9,379.4],[693.1,380],[692.6,379.4],[690.6,380.2],[690.7,381],[690.1,382.8],[687,384.6],[686.9,383.1],[685.7,381.8],[685.5,380.7],[667.6,383.5],[667.3,388.3],[667.6,390.9],[668.4,393.9],[669.2,395.9],[671.3,399.2],[672.6,402],[674.1,404.1],[675.7,406],[677.4,407.5],[679.1,411],[704.8,407.6],[718.6,405.7],[720,405.8],[725.5,404.9],[739.7,402.9],[742.5,422.8],[762.4,420]]]}},{"type":"Feature","properties":{"st":"FL","district":17,"name":{},"label_x":762.5,"label_y":445.8},"geometry":{"type":"Polygon","coordinates":[[[728.1,473.1],[743.8,470.7],[748.2,470],[752.7,470.2],[754.2,471.1],[755.2,471.1],[782.4,467.1],[785.7,471.8],[786.6,473.7],[787.2,476.9],[789.3,479],[791.9,476.5],[793,474.8],[794.8,475.7],[795.1,477.3],[796.2,477.1],[796.5,478],[798.7,477.7],[799.2,479.2],[800.9,479],[800.6,477.4],[801.4,477.2],[801.6,480.6],[803.2,480.3],[803.3,481],[804.9,480.8],[805.8,481.2],[810.4,480.4],[810.7,480.7],[811.6,486],[815,487],[816.4,488.1],[817,487.4],[818.8,487.7],[823.7,486.9],[820.5,467.9],[818.2,451.8],[815.4,431.9],[805.4,433.5],[792.1,435.5],[772.7,438.2],[771.9,438.8],[765.3,439.7],[763.7,429.3],[762.4,420],[742.5,422.8],[739.7,402.9],[725.5,404.9],[720,405.8],[718.6,405.7],[704.8,407.6],[679.1,411],[680.2,413],[682.2,415.5],[684.1,417.2],[686.8,419.1],[690.7,423.5],[693.1,425.5],[694,427.6],[696.3,431],[698.8,433.4],[701,435],[701.8,435.9],[704,439.6],[705.7,441.9],[706.6,444.2],[708.6,447.4],[710.6,451.1],[712.3,453.5],[715.3,457.1],[717.2,460],[720,463.4],[723.6,468.2],[726,471],[728.1,473.1]]]}},{"type":"Feature","properties":{"st":"FL","district":18,"name":{},"label_x":830.9,"label_y":399.8},"geometry":{"type":"Polygon","coordinates":[[[874.4,352.9],[855.1,356],[847.3,357.1],[848.2,356.5],[848.2,355.1],[846.6,354.2],[845.6,350.5],[845.8,349.6],[843.2,348.3],[843.2,346.3],[841.8,345.5],[841.9,344.1],[840.8,343.2],[839.3,341.4],[838.6,340.1],[836.8,337.5],[835,336.2],[833.2,335.7],[831.8,336.2],[829.9,335.9],[829.6,335.3],[828,335.3],[827,334],[826.6,332.5],[825.4,330.9],[825.7,328.5],[822.2,327.8],[822.4,325.8],[821.1,325.5],[820.8,324.4],[817.9,323.2],[817.5,322.1],[816.4,320.6],[813.1,321.3],[812,319.2],[810.6,318],[809.1,319],[803.4,319.9],[801.6,319.3],[801.3,317.2],[802.6,316.4],[801.7,314.9],[801.1,313.1],[799.4,311.3],[799.4,309.5],[798.8,308.4],[800.3,307.1],[799.3,300.5],[797.3,297.7],[794.6,296.7],[792.8,296.5],[791,296.7],[788.7,296],[783.7,301.6],[781.5,303.4],[776.5,306.7],[774.5,308.4],[773.2,307.8],[769.9,308.3],[770.4,310],[768.8,310.2],[767.1,311.1],[764.2,310.4],[764,309.2],[761.6,309.6],[761.8,311.2],[760.9,311.4],[758.2,313.3],[758.2,315.1],[755.5,315.5],[756.1,319.6],[758.1,321.9],[759.6,331.7],[759.3,332.5],[758.2,333.5],[756.6,333.8],[756.8,335.4],[755.6,335.6],[755.8,337.2],[753.9,337.5],[753.2,339.3],[752.3,339],[750.6,339.3],[751.7,346.2],[752,347.4],[753.2,356.3],[756.3,376.9],[758.3,391],[760.4,405.4],[762.4,420],[763.7,429.3],[765.3,439.7],[771.9,438.8],[772.7,438.2],[792.1,435.5],[805.4,433.5],[815.4,431.9],[818.2,451.8],[820.5,467.9],[823.7,486.9],[824.2,490.2],[826.2,489.8],[837.9,491.2],[839.2,498.7],[850.6,496.8],[852.4,496.2],[855.6,495.7],[857,503.8],[858.9,514.6],[873.8,511.9],[888.7,509.4],[898.6,507.6],[896.8,497.9],[897,497.9],[894.8,486.6],[894.3,483.2],[892,470.3],[890.9,463.8],[888.1,446.5],[885.6,430.6],[885.4,429.6],[890,424.1],[897.3,415.7],[903.6,408],[901.3,394.2],[900.4,388.7],[897.5,371.4],[896,362.7],[895.4,359.2],[885.6,360.7],[884,351.3],[874.4,352.9]]]}},{"type":"Feature","properties":{"st":"FL","district":19,"name":{},"label_x":783.6,"label_y":520.6},"geometry":{"type":"Polygon","coordinates":[[[830.1,570.5],[828.9,562.3],[827.3,562.6],[826.9,558.8],[826.2,557.1],[824.9,556.2],[824.7,555.3],[823.4,554.6],[820.4,554.6],[818.7,553.9],[819,551.6],[818,542.5],[815.7,541.4],[812.6,538.6],[812.9,538.1],[811.8,531.5],[814.2,531],[813.6,526.4],[811.8,526.5],[811.1,522.9],[810.2,520.7],[809.4,515.9],[808.9,514.9],[818,513.5],[816,502],[826,500.3],[824.2,490.2],[823.7,486.9],[818.8,487.7],[817,487.4],[816.4,488.1],[815,487],[811.6,486],[810.7,480.7],[810.4,480.4],[805.8,481.2],[804.9,480.8],[803.3,481],[803.2,480.3],[801.6,480.6],[801.4,477.2],[800.6,477.4],[800.9,479],[799.2,479.2],[798.7,477.7],[796.5,478],[796.2,477.1],[795.1,477.3],[794.8,475.7],[793,474.8],[791.9,476.5],[789.3,479],[787.2,476.9],[786.6,473.7],[785.7,471.8],[782.4,467.1],[755.2,471.1],[754.2,471.1],[752.7,470.2],[748.2,470],[743.8,470.7],[728.1,473.1],[730.2,475.4],[732,478.4],[732.5,481.6],[732.7,483.9],[733.2,486.7],[733.9,488.5],[735.7,491.9],[737,493.8],[738.8,495.8],[739.8,498.5],[741.7,501.7],[743.1,503.4],[745.3,509.2],[747,512.3],[749.1,515],[750.9,516.9],[753.8,519],[756.9,520.5],[760.7,522.8],[766.1,524.6],[769.2,525.2],[772.2,525.3],[775.9,525],[780.2,523.9],[782.9,522.5],[784.1,524.5],[786.2,530.2],[787.7,536.9],[788.8,539.7],[790.3,546],[792,549.7],[796.3,556.2],[797.4,558.3],[798.3,561.6],[800.2,565.3],[801.6,566.9],[803.1,569.6],[804.3,571.3],[807.1,574.1],[830.1,570.5]]]}},{"type":"Feature","properties":{"st":"FL","district":20,"name":{},"label_x":927.9,"label_y":481.5},"geometry":{"type":"Polygon","coordinates":[[[974.1,512.6],[973.8,511],[975.8,510.6],[976.1,509.4],[975.7,507.4],[973.9,506.1],[974.4,501.9],[975.4,500.1],[975.1,498.7],[976.1,498.5],[977.1,486.9],[975.2,487.1],[975.5,488.5],[975.2,491.5],[974.5,491.5],[974.4,495],[972.9,495.2],[973.3,497.1],[971.6,497.2],[969.6,501],[969.3,499.2],[958.6,501.2],[956.3,487.1],[961.2,487.9],[960.8,485.3],[961.9,482.9],[961.6,480.1],[962,473.2],[961,468.3],[959.3,465.2],[957.2,462.7],[953.6,459.2],[947.5,456.6],[945.7,455.2],[943.6,452.2],[943.4,451.5],[958.1,449.5],[958.5,451],[960.2,450.9],[959.9,449.3],[969.2,448],[973.5,447.5],[973.5,445.8],[972.9,444.9],[974,443],[974.2,441.9],[973.7,438.1],[973.8,436.7],[974,435.4],[973.5,434],[973.7,432.7],[972.2,432.6],[969.7,433],[969.1,434.7],[969.2,437.3],[964.9,435.2],[965.5,440.2],[967.2,440],[967.5,442],[969,441.4],[969.8,444.6],[959.5,446],[959.3,445.1],[957.7,444.6],[957.5,443.3],[952.6,444.2],[952.5,443.4],[949.2,443.8],[948.1,444.7],[948.3,447.9],[943,448.7],[942.5,445.2],[938.5,441.6],[936.5,440.1],[930.1,435.8],[918.6,427.6],[917,427.9],[916.4,424.7],[911.4,425.5],[899.2,427.3],[885.4,429.6],[885.6,430.6],[888.1,446.5],[890.9,463.8],[892,470.3],[894.3,483.2],[894.8,486.6],[897,497.9],[896.8,497.9],[898.6,507.6],[900.2,517.2],[901.3,522.5],[903.9,536.3],[904.3,538.7],[924.1,535.5],[924.5,538],[949.1,533.9],[947.3,524.3],[945.9,516.6],[944.7,513.6],[945.6,512.9],[953.8,513.6],[954.3,516.4],[956,516.2],[955.6,513.8],[957.3,514],[957.1,512.7],[958.5,512.6],[958.2,509.1],[959.9,508.9],[960.1,510],[961.2,510.1],[961.4,511.4],[963.2,511.1],[965.2,512.5],[967.1,512.2],[967.4,513.8],[971.6,513.3],[974.1,512.6]]]}},{"type":"Feature","properties":{"st":"FL","district":21,"name":{},"label_x":933.6,"label_y":399.3},"geometry":{"type":"Polygon","coordinates":[[[885.4,429.6],[899.2,427.3],[911.4,425.5],[916.4,424.7],[917,427.9],[918.6,427.6],[930.1,435.8],[936.5,440.1],[938.5,441.6],[942.5,445.2],[943,448.7],[948.3,447.9],[948.1,444.7],[949.2,443.8],[952.5,443.4],[952.6,444.2],[957.5,443.3],[957.7,444.6],[959.3,445.1],[959.5,446],[969.8,444.6],[969,441.4],[967.5,442],[967.2,440],[965.5,440.2],[964.9,435.2],[969.2,437.3],[969.1,434.7],[969.7,433],[972.2,432.6],[973.7,432.7],[973.5,434],[974,435.4],[973.8,436.7],[975.1,436.1],[981.2,435.1],[980.7,432],[978.1,426],[977,423.2],[972.7,413.8],[969.9,407.5],[966.3,401],[963.8,397.5],[961.8,393.5],[961.3,391.6],[959.6,389.4],[959.2,388.4],[957,385.6],[951,376.1],[948.2,371.5],[944.8,366.4],[942.7,362.3],[942.1,359.8],[940,357.3],[937.3,352.4],[921,355.1],[900.9,358.2],[895.4,359.2],[896,362.7],[897.5,371.4],[900.4,388.7],[901.3,394.2],[903.6,408],[897.3,415.7],[890,424.1],[885.4,429.6]]]}},{"type":"Feature","properties":{"st":"FL","district":22,"name":{},"label_x":968.2,"label_y":458.6},"geometry":{"type":"Polygon","coordinates":[[[961.9,482.9],[965.3,482.5],[965.1,481.2],[968.4,480.7],[968.1,479],[970.7,478.5],[970.5,477.7],[972.2,477.4],[972.4,478.2],[975.1,477.7],[975.2,476],[977.2,475.7],[978.7,475.9],[978.9,475.2],[984.6,474.2],[984.5,465.8],[984.5,462.7],[984.3,457.9],[984,454.9],[982.9,448.8],[982.6,445.8],[982.5,442.3],[981.7,440.3],[981.2,437.6],[981.2,435.1],[975.1,436.1],[973.8,436.7],[973.7,438.1],[974.2,441.9],[974,443],[972.9,444.9],[973.5,445.8],[973.5,447.5],[969.2,448],[959.9,449.3],[960.2,450.9],[958.5,451],[958.1,449.5],[943.4,451.5],[943.6,452.2],[945.7,455.2],[947.5,456.6],[953.6,459.2],[957.2,462.7],[959.3,465.2],[961,468.3],[962,473.2],[961.6,480.1],[961.9,482.9]]]}},{"type":"Feature","properties":{"st":"FL","district":23,"name":{},"label_x":965.9,"label_y":492.8},"geometry":{"type":"Polygon","coordinates":[[[961.9,482.9],[960.8,485.3],[961.2,487.9],[956.3,487.1],[958.6,501.2],[969.3,499.2],[969.6,501],[971.6,497.2],[973.3,497.1],[972.9,495.2],[974.4,495],[974.5,491.5],[975.2,491.5],[975.5,488.5],[975.2,487.1],[977.1,486.9],[976.1,498.5],[975.1,498.7],[975.4,500.1],[974.4,501.9],[973.9,506.1],[975.7,507.4],[976.1,509.4],[975.8,510.6],[973.8,511],[974.1,512.6],[975.1,513.7],[978.8,513],[978.9,513.4],[986.5,512.1],[986,507.6],[985.7,500.3],[985.8,496.2],[986.1,494],[985.6,489.8],[985.7,486.1],[985,481.5],[984.6,474.2],[978.9,475.2],[978.7,475.9],[977.2,475.7],[975.2,476],[975.1,477.7],[972.4,478.2],[972.2,477.4],[970.5,477.7],[970.7,478.5],[968.1,479],[968.4,480.7],[965.1,481.2],[965.3,482.5],[961.9,482.9]]]}},{"type":"Feature","properties":{"st":"FL","district":24,"name":{},"label_x":979.4,"label_y":539.8},"geometry":{"type":"Polygon","coordinates":[[[965.3,529.6],[966.4,534.7],[964.7,535],[965.4,538.2],[966.5,538.1],[967.4,539.5],[969,539.2],[969.2,540.4],[970.9,540.1],[971.5,542.9],[970.6,543.1],[970.4,544.2],[971.3,546.5],[973.1,546.5],[977.9,545.8],[977.8,547.5],[976.4,548.6],[978.9,548.3],[980.2,549.1],[982.9,549.8],[982.6,550.6],[984.5,551.9],[989.2,554.2],[990.2,552.8],[990.8,550.2],[990.1,547.5],[990.2,544.7],[989.6,538.7],[988.8,535.9],[988.2,532.2],[987.3,525.3],[976.9,527.3],[976.5,524.9],[964.9,527.1],[965.3,529.6]]]}},{"type":"Feature","properties":{"st":"FL","district":25,"name":{},"label_x":966.8,"label_y":520.4},"geometry":{"type":"Polygon","coordinates":[[[974.1,512.6],[971.6,513.3],[967.4,513.8],[967.1,512.2],[965.2,512.5],[963.2,511.1],[961.4,511.4],[961.2,510.1],[960.1,510],[959.9,508.9],[958.2,509.1],[958.5,512.6],[957.1,512.7],[957.3,514],[955.6,513.8],[956,516.2],[954.3,516.4],[953.8,513.6],[945.6,512.9],[944.7,513.6],[945.9,516.6],[947.3,524.3],[949.1,533.9],[962.3,531.7],[963.9,531.5],[963.7,529.9],[965.3,529.6],[964.9,527.1],[976.5,524.9],[976.9,527.3],[987.3,525.3],[987.3,524.2],[986.4,514.4],[986.5,512.1],[978.9,513.4],[978.8,513],[975.1,513.7],[974.1,512.6]]]}},{"type":"Feature","properties":{"st":"FL","district":26,"name":{},"label_x":858.5,"label_y":530.5},"geometry":{"type":"Polygon","coordinates":[[[965.3,529.6],[963.7,529.9],[963.9,531.5],[962.3,531.7],[949.1,533.9],[924.5,538],[924.1,535.5],[904.3,538.7],[903.9,536.3],[901.3,522.5],[900.2,517.2],[898.6,507.6],[888.7,509.4],[873.8,511.9],[858.9,514.6],[857,503.8],[855.6,495.7],[852.4,496.2],[850.6,496.8],[839.2,498.7],[837.9,491.2],[826.2,489.8],[824.2,490.2],[826,500.3],[816,502],[818,513.5],[808.9,514.9],[809.4,515.9],[810.2,520.7],[811.1,522.9],[811.8,526.5],[813.6,526.4],[814.2,531],[811.8,531.5],[812.9,538.1],[812.6,538.6],[815.7,541.4],[818,542.5],[819,551.6],[818.7,553.9],[820.4,554.6],[823.4,554.6],[824.7,555.3],[824.9,556.2],[826.2,557.1],[826.9,558.8],[827.3,562.6],[828.9,562.3],[830.1,570.5],[847.8,567.6],[858.3,566],[863,565.2],[881.5,562.4],[884,562],[896.3,560],[907.4,558],[912.6,562],[913,562.1],[928.4,559.6],[928.8,559.7],[955,555.4],[954.9,552.8],[958,552.5],[957.7,550.8],[959.3,550.5],[959.6,552.3],[961.2,552],[965.1,551.5],[966.2,550.9],[969.3,550.4],[970,549.2],[971.8,549],[971.9,549.6],[974.7,549.6],[976.4,548.6],[977.8,547.5],[977.9,545.8],[973.1,546.5],[971.3,546.5],[970.4,544.2],[970.6,543.1],[971.5,542.9],[970.9,540.1],[969.2,540.4],[969,539.2],[967.4,539.5],[966.5,538.1],[965.4,538.2],[964.7,535],[966.4,534.7],[965.3,529.6]]]}},{"type":"Feature","properties":{"st":"FL","district":27,"name":{},"label_x":974.4,"label_y":564.2},"geometry":{"type":"Polygon","coordinates":[[[989.2,554.2],[984.5,551.9],[982.6,550.6],[982.9,549.8],[980.2,549.1],[978.9,548.3],[976.4,548.6],[974.7,549.6],[971.9,549.6],[971.8,549],[970,549.2],[969.3,550.4],[966.2,550.9],[965.1,551.5],[961.2,552],[961.7,554.2],[960,554.5],[960.4,556.3],[960,557.8],[958.9,558],[959.5,560.8],[959.2,562.9],[959.7,565.6],[960.6,568.9],[961.4,569.8],[961.9,572.1],[963.5,574.3],[963,575.2],[964.1,575.9],[964.7,577.1],[967,578.2],[967.8,578],[968.7,579],[969.6,579],[977.8,577.8],[983.8,574.9],[989.7,575.5],[990.5,574.6],[990.9,573.1],[990.8,571.1],[989.7,567.2],[989.3,562.4],[989.5,559.9],[989.2,558.4],[989.4,556.9],[989.2,554.2]]]}},{"type":"Feature","properties":{"st":"FL","district":28,"name":{},"label_x":921,"label_y":641.2},"geometry":{"type":"MultiPolygon","coordinates":[[[[990.5,574.6],[989.7,575.5],[983.8,574.9],[977.8,577.8],[969.6,579],[968.7,579],[967.8,578],[967,578.2],[964.7,577.1],[964.1,575.9],[963,575.2],[963.5,574.3],[961.9,572.1],[961.4,569.8],[960.6,568.9],[959.7,565.6],[959.2,562.9],[959.5,560.8],[958.9,558],[960,557.8],[960.4,556.3],[960,554.5],[961.7,554.2],[961.2,552],[959.6,552.3],[959.3,550.5],[957.7,550.8],[958,552.5],[954.9,552.8],[955,555.4],[928.8,559.7],[928.4,559.6],[913,562.1],[912.6,562],[907.4,558],[896.3,560],[884,562],[881.5,562.4],[863,565.2],[858.3,566],[847.8,567.6],[830.1,570.5],[807.1,574.1],[807.9,574.7],[811.2,579.3],[812.6,580.9],[814.8,582.7],[817.8,584.3],[820.1,585.2],[823.8,585.8],[827,585.8],[831.8,585],[834.5,584.1],[837.1,582.7],[839.8,583.9],[843.5,585],[844.2,587],[845.4,589],[846.7,590.7],[848.6,592.4],[850.2,593.5],[852.8,594.7],[854.9,595.3],[857.1,597.9],[860.1,600.7],[862.4,605.5],[863.7,607.6],[866.3,610.4],[868.1,611.6],[869.8,615.8],[869.2,622.6],[868.8,624.8],[868.7,627.3],[869,629.4],[870,632.7],[871.4,635.5],[873.2,638.3],[874.7,640],[875.8,642.9],[877.2,645.1],[878.5,646.6],[880.7,648.5],[882.7,649.8],[886,651.1],[887.5,652.5],[889.1,653.4],[891.3,655.8],[889.7,656],[886.9,655.4],[884.6,655.2],[881.2,655.6],[877.7,656.7],[875.5,658],[872.7,658.7],[868.8,658.5],[866,658.9],[858.5,661.4],[856.6,662.4],[852,665.7],[849.5,667.6],[845.8,671.2],[843.2,672.5],[841.6,673.7],[839.1,676.1],[835.6,678.5],[832.4,681],[830.9,682.8],[827.3,684.3],[821.5,688.6],[819.7,690.3],[817.3,690.8],[814.3,691.8],[811.2,693.2],[808.4,695],[806.5,696.6],[804.4,696.1],[801.4,695.6],[798.8,695.5],[795.3,695.7],[790.7,696.8],[788.2,697.9],[784.6,700.5],[782.3,703.2],[780.2,706.8],[778.9,710],[778.2,712.4],[777.5,717],[789.1,715.3],[788.8,716.8],[788.9,718.7],[789.4,720.2],[790.6,722],[791.6,722.9],[793.6,723.9],[795.7,724.2],[800.8,723.4],[802.5,722.8],[804.5,721.2],[805.6,719.7],[806.7,720.6],[807.7,722.4],[809.7,723.8],[810.9,724.1],[816.2,724.1],[815.7,725.8],[816.2,728.6],[817.9,730.6],[820.3,731.6],[821.5,731.7],[824,731.3],[825.6,730.1],[828.5,729.9],[831.1,729.1],[833.9,727.5],[836.1,724.7],[836.5,722.2],[836,720.3],[835.3,718.9],[836.8,718.2],[836.9,720.1],[837.6,721.8],[838.6,723.2],[840.3,724.3],[842.4,724.8],[844.3,724.6],[847.7,723],[851.1,721.7],[852.2,720.9],[854.5,720.2],[855.8,719.3],[856.8,718],[858.9,717.5],[861.3,715.6],[862.5,713.8],[862.9,711.8],[862.5,709.8],[861.4,707.9],[862.6,706.4],[867,707.1],[869.3,706.5],[872.3,704.3],[876,703.8],[878.1,702.9],[878.9,702.2],[884,700],[885.1,699.3],[887.4,698.9],[889.1,697.9],[890.3,696.2],[892.7,695.1],[893.8,694],[895.9,693.7],[898.4,692.3],[899.4,691.1],[902,692.1],[904.9,692.1],[907.1,691.7],[910,690.5],[911.5,688.6],[912.1,687.3],[914.4,686.5],[918.5,683.1],[920.7,681.7],[922.1,680.2],[924.7,679.4],[926.1,678.2],[928.4,675.2],[929.9,674.8],[932.3,673.1],[935.3,672.6],[936.5,671.9],[937.9,670.5],[938.8,668.9],[942.3,666.6],[945.4,663.7],[947.7,662.6],[950.6,659.5],[951.3,658.2],[952.7,656.9],[953.6,655.1],[955.3,653.5],[958.1,651.7],[959.2,650.3],[960,648.2],[961.5,647.7],[964.5,646.2],[965.9,644.6],[966.9,641.9],[966.8,640.5],[969.6,638.4],[970.9,635.6],[970.7,633.1],[972.2,632.2],[973.8,630.8],[975.9,627.5],[978.2,621.9],[978.5,618.8],[979.8,615],[980.4,613.9],[981.4,610.8],[982.9,608],[983.6,605],[985.5,601.9],[986.6,599.3],[986.7,597.1],[987.1,595],[988.5,592.9],[989.1,591.2],[989.2,589.4],[989.7,587],[991.8,585.7],[993.4,583],[993.5,581.1],[993.1,579.6],[992,577.7],[990.5,576.6],[990.5,574.6]]],[[[710.8,727.5],[713.3,727.8],[716.2,726.5],[719.5,727.5],[721.7,727.3],[723.2,726.5],[725.1,724.4],[743,721.9],[743.7,719.3],[743.9,716.7],[743.7,713.8],[742.6,710.1],[741.2,707.5],[739.7,705.6],[738,703.9],[736.1,702.5],[733.1,701],[729.4,700],[725.7,699.8],[723.6,700.1],[720.8,700.7],[717.5,701.2],[715,701.9],[712.4,703.1],[709.8,703.7],[706.4,705.2],[703.9,706.9],[699.4,711.1],[698.1,712.7],[696.3,716.1],[695.2,720.1],[695.1,723.4],[695.3,725.4],[696.4,728.8],[697.2,730.4],[699.2,733.3],[701.4,735.4],[702.9,736.4],[705.5,737.8],[708.8,738.8],[707.2,726.9],[709,726.7],[710.8,727.5]]]]}}]}
