{"type":"FeatureCollection","frame":{"width":1152,"height":748.8,"y":"down"},"note":"FL congressional plan first used 2026 (28 districts), Dave's Redistricting export, simplified by mapshaper, projected with the shared conus_proj and fitted so FL fills the frame. FL-2022 and FL-2026 share this fit and overlay exactly.","features":[{"type":"Feature","properties":{"st":"FL","district":1,"name":{},"label_x":248.1,"label_y":98.4},"geometry":{"type":"Polygon","coordinates":[[[303.6,43.6],[294.3,44.5],[288.4,45.1],[280.5,45.8],[265.9,47.5],[261.6,47.7],[249.5,48.9],[246.4,49],[235.6,50],[225.8,50.9],[219.2,51.4],[205.3,52.6],[195.9,53.8],[194.5,53.8],[188.7,54.3],[184.4,54.7],[171.9,55.8],[160.7,56.9],[162,60.4],[161.9,62.1],[160.6,65.4],[160.1,67.9],[159.5,68.5],[159.7,69.6],[158.9,70.5],[158.5,72.2],[159.6,73.4],[159.6,74.3],[160.8,75.6],[161.9,75.9],[162.3,77],[164.2,77.8],[165.4,79.1],[166.2,79.5],[168.2,81.4],[168.1,82.1],[169.2,83.3],[169.4,84.6],[173,87.5],[175,87.8],[175.9,89.1],[177.5,89.8],[178.3,89.6],[179.3,90.5],[182.8,92],[183.4,93.9],[183.9,94.1],[184.6,97.2],[184.3,99.6],[183.6,100.1],[183.6,102.3],[182.8,104.6],[182,105.3],[180.5,108.9],[180.4,111],[182.3,112.4],[181.9,114.3],[182.6,115.4],[184.2,116.8],[186.1,117.4],[188.7,117.6],[188.9,119.2],[185.4,122.2],[183.6,122.3],[182.4,124.5],[182.7,125.6],[181.7,127],[181.8,129.6],[180.9,131],[179.9,131.5],[177.2,132.1],[176.8,134.2],[177.9,134.8],[179,134.7],[182.3,133.7],[182.1,135],[175.8,137.4],[177.4,155.4],[180.9,154.2],[186.7,152.4],[190.8,151.3],[198.2,148.6],[200.6,148.7],[205.8,148],[210.8,146.9],[216.1,145.5],[226.5,142.2],[235.5,139.5],[241.6,137.7],[246.7,136.4],[255.4,134.6],[262.5,133.5],[267.4,133.5],[272.5,134],[274.6,134.1],[278.8,133.4],[281.9,133.2],[287.9,133.4],[291.9,133.8],[295.8,134.4],[303.3,136.1],[308.6,137.4],[306.8,118.6],[306.3,114],[308.3,107.2],[310.1,105.3],[310,103.7],[312,100.9],[311.5,95.9],[313.4,95.8],[313.1,92.4],[311.2,92.6],[310.5,88.5],[309.6,86],[309.5,82.3],[308.5,80.8],[308.4,79.5],[307.5,79.6],[307.3,77.7],[305.6,77.6],[304.8,77.1],[304.9,74.7],[304.4,74],[305,73],[305,71.4],[306.2,70.6],[304.4,70.1],[305.1,68.5],[305,66.8],[307.3,66.9],[306.6,64],[306.9,59.5],[306.7,58],[305.8,56.7],[303.9,51.1],[303.6,47.6],[303.6,43.6]]]}},{"type":"Feature","properties":{"st":"FL","district":2,"name":{},"label_x":446.9,"label_y":121.4},"geometry":{"type":"Polygon","coordinates":[[[308.6,137.4],[311.8,138.1],[319.5,140.5],[326.6,143.1],[334.4,146.7],[338.9,149.1],[340.6,150.2],[343.1,152.4],[348.1,155.5],[350.4,156.6],[354.5,158.3],[357.8,159.3],[360.4,161.7],[363.1,164],[366.4,166.5],[368.9,168.1],[370.9,169.1],[371.8,174.4],[372.9,178.1],[374.3,182.1],[376,186.1],[377.6,189.5],[379.2,192.2],[382.4,196.5],[383.9,198.2],[386.2,200.2],[388.7,201.9],[390.5,202.8],[393.8,203.8],[396.5,204.2],[400.2,203.9],[402.3,203.4],[405.1,202.3],[407.5,200.9],[410,202.4],[413.7,203.9],[416.2,204.5],[419.8,206.9],[423,208.1],[427.3,208.7],[430.7,208.4],[433.7,207.5],[435.7,206.7],[444.1,202.8],[446.8,201.1],[452.4,196.6],[454.2,195.4],[456.9,194.1],[459.9,192.5],[463.4,190],[466,187.8],[467.5,186.1],[472.3,180],[476.1,178.1],[480.2,175.5],[482.4,173.8],[484.2,171.9],[486.5,168.3],[487.5,166],[490.4,166],[493.1,165.7],[497.8,164.4],[500.9,163],[503.6,161.1],[506.3,158.4],[508,155.8],[509.6,152],[510.4,148.4],[510.7,145.8],[510.6,143.1],[514,142.3],[519.7,139.8],[522.7,141.9],[525,143],[529.6,144.7],[531.7,146.7],[533.5,148],[536.6,149.5],[540.1,150.4],[542.6,150.5],[544.6,150.4],[548.3,152],[549.9,153.2],[551.2,155.2],[552.7,157],[554.1,161.3],[555.7,164],[558.9,168.2],[561.5,170.5],[563.2,171.6],[566.2,172.9],[569.3,173.8],[572.8,176.2],[574,180.2],[587.7,162.5],[589.3,161.3],[590.6,161.7],[592.6,161.8],[592.8,160.4],[593.6,158.4],[593.4,157],[593.8,154.7],[593.4,152.8],[594.1,150.7],[595.5,148.5],[594.9,143.5],[591.5,144],[590.5,136.6],[588.8,136.8],[587.1,124.1],[585.4,109.5],[592.8,108.5],[591.8,99.9],[592.2,96.8],[591.9,94.4],[593.1,94.1],[593.4,93.3],[595.9,93],[595.8,92.1],[596.4,90.2],[596.5,88.4],[598.1,86.7],[597.5,85.6],[598,84.6],[597.3,83.1],[598.7,82.5],[599,81.3],[598.9,79.3],[600.6,77.4],[599.5,75.2],[597.9,74.6],[596.8,75.1],[595.4,74.3],[595.5,73.7],[594.7,71],[595.1,70.5],[594.1,69.2],[592.3,68.9],[592.3,66.6],[591.7,64.6],[592.1,63.8],[591,61.4],[589.5,60.1],[589.8,59.3],[589.1,58.3],[588.8,57],[589.4,56.3],[587.9,53.6],[587.2,51.8],[585.1,51.9],[583.5,51.5],[564.7,52.7],[552.5,53.6],[534.4,54.8],[527.4,55.3],[518,55.9],[491,57.8],[484.8,58.2],[478.8,58.6],[469.1,59.5],[462.9,59.8],[452.4,60.4],[430.7,61.9],[429.5,60.2],[428.5,59.7],[427,57.8],[425.7,57.9],[424.6,56.4],[424.6,55],[423.4,53.4],[423.3,52.2],[422.3,50.6],[422.2,48.8],[423,48.1],[422.1,46.7],[422,45.2],[421.3,44.3],[421.6,43],[420.8,42.7],[419.2,40.7],[418.1,39.7],[417.4,38.5],[416.2,37.8],[416.1,34.8],[415.4,34.1],[413.7,33.8],[413.5,30.6],[408,31.3],[390,33.3],[377.8,34.9],[359.8,37.2],[340.9,39.4],[328.4,41],[316.8,42.3],[303.6,43.6],[303.6,47.6],[303.9,51.1],[305.8,56.7],[306.7,58],[306.9,59.5],[306.6,64],[307.3,66.9],[305,66.8],[305.1,68.5],[304.4,70.1],[306.2,70.6],[305,71.4],[305,73],[304.4,74],[304.9,74.7],[304.8,77.1],[305.6,77.6],[307.3,77.7],[307.5,79.6],[308.4,79.5],[308.5,80.8],[309.5,82.3],[309.6,86],[310.5,88.5],[311.2,92.6],[313.1,92.4],[313.4,95.8],[311.5,95.9],[312,100.9],[310,103.7],[310.1,105.3],[308.3,107.2],[306.3,114],[306.8,118.6],[308.6,137.4]]]}},{"type":"Feature","properties":{"st":"FL","district":3,"name":{},"label_x":656.3,"label_y":140.4},"geometry":{"type":"Polygon","coordinates":[[[574,180.2],[575,184.4],[576,187.5],[577.9,190.8],[579.9,193.1],[583.1,195.5],[585.7,196.7],[590.5,198.4],[592.4,200.3],[594.3,201.7],[599.4,204.3],[600,207.1],[601.7,210.7],[604.1,213.9],[606.6,216],[608.9,217.3],[610.6,218],[610.7,220.7],[611.1,222.7],[612.2,226],[613.5,228.3],[617,233.1],[619.4,235.3],[620.6,236.1],[639.2,233.3],[662.8,229.7],[663.3,228.5],[665.7,226.6],[667.2,224.6],[669.3,223.9],[670.8,224.6],[673.8,224.7],[677.4,225.6],[678.3,225],[678.2,224.1],[678.9,223],[680.6,223],[681.8,222],[682.5,222.1],[684.4,220.5],[686,220.9],[688.2,220.4],[689,219.1],[690.1,218.9],[693.9,220.3],[695.3,221.7],[696.6,222.5],[698.1,221.8],[699.2,222.7],[701.9,222.9],[702.5,223.8],[704.6,224.2],[705.9,225],[707.4,225.5],[708,226.9],[717.8,225.5],[726.7,224.2],[723.3,219.5],[721.6,215.8],[718.6,211.4],[718,206.9],[722.7,205.9],[722.6,204.6],[728.3,203.8],[728.7,202],[729.2,202],[729.3,199.5],[728.9,197],[729.7,196.8],[729,194.8],[727.8,195],[727.6,193.8],[720.3,194.8],[719.2,192.9],[717.7,182],[719.5,175.9],[720.3,174.6],[720.6,173.1],[720.2,170.4],[721,170],[721.6,170.8],[723,169.4],[724.1,170],[725.4,168.9],[724.3,161.8],[722.7,150.4],[722,146],[721.7,143.2],[721.4,137.6],[721.3,134.3],[717.9,112.8],[716.9,106],[716.5,104.1],[715.1,94.6],[712.7,78.4],[710.6,65],[709.2,65.7],[706.3,65.8],[705.2,65.1],[703.9,65.7],[701.8,66],[699.8,67.1],[699,67.1],[697.9,66.1],[697.2,65],[696.4,65.2],[695.1,63],[693.9,60.1],[694.2,58.1],[693.6,56.2],[694,54.4],[693.8,53.3],[692,51.4],[691.1,51.1],[690.3,49],[689.4,48.3],[689.2,47],[689.4,45.5],[691.1,44],[670.8,45.4],[654.2,46.6],[638.5,47.8],[626.8,48.6],[606.6,50],[583.5,51.5],[585.1,51.9],[587.2,51.8],[587.9,53.6],[589.4,56.3],[588.8,57],[589.1,58.3],[589.8,59.3],[589.5,60.1],[591,61.4],[592.1,63.8],[591.7,64.6],[592.3,66.6],[592.3,68.9],[594.1,69.2],[595.1,70.5],[594.7,71],[595.5,73.7],[595.4,74.3],[596.8,75.1],[597.9,74.6],[599.5,75.2],[600.6,77.4],[598.9,79.3],[599,81.3],[598.7,82.5],[597.3,83.1],[598,84.6],[597.5,85.6],[598.1,86.7],[596.5,88.4],[596.4,90.2],[595.8,92.1],[595.9,93],[593.4,93.3],[593.1,94.1],[591.9,94.4],[592.2,96.8],[591.8,99.9],[592.8,108.5],[585.4,109.5],[587.1,124.1],[588.8,136.8],[590.5,136.6],[591.5,144],[594.9,143.5],[595.5,148.5],[594.1,150.7],[593.4,152.8],[593.8,154.7],[593.4,157],[593.6,158.4],[592.8,160.4],[592.6,161.8],[590.6,161.7],[589.3,161.3],[587.7,162.5],[574,180.2]]]}},{"type":"Feature","properties":{"st":"FL","district":4,"name":{},"label_x":731.9,"label_y":73.8},"geometry":{"type":"Polygon","coordinates":[[[765.1,116.5],[763,113.3],[762,111],[761.4,108.9],[761.9,106.2],[761.6,104.6],[760.3,102.8],[758.7,101.7],[753.7,99.5],[752.4,98.6],[751.6,97.4],[750.9,93.5],[751.5,91.1],[750.9,88.5],[750.8,86.8],[749.3,84.6],[749,81.2],[749.7,80],[749.7,78.9],[752,74.8],[751.5,72.7],[748.2,69.6],[747.7,68.5],[749,67],[748.7,64.8],[749.5,63.8],[752.4,64.3],[753.3,62.6],[754.7,61.3],[754.4,59.5],[753.8,58.3],[754.8,57.9],[758.2,57.3],[759,56.3],[758.3,55.2],[762.5,53.6],[763.3,53.8],[766.6,53.1],[768.8,54],[769.8,53.2],[771,51.1],[772.4,51],[774.5,51.3],[781.5,50.3],[781.3,49],[780.2,47.2],[778.7,45.9],[777.1,45.2],[776.8,42.1],[776.1,40],[773.5,35.8],[772.4,32.4],[771.6,28.2],[771.2,25.2],[771.4,21.1],[772.6,19.3],[773.1,18.2],[773.3,16.3],[773,15.1],[767.5,15.9],[764.9,16.8],[761.7,17],[760.6,16.8],[758.9,15.7],[756.7,16.4],[754.7,16.7],[754.5,18.4],[753.1,17.5],[752.4,18.3],[751,17.4],[747.7,17.3],[747.8,18.2],[746.1,18],[744.5,17],[743.6,17.9],[743,16.4],[741,15.9],[740.9,17],[739.4,16.9],[738.9,16.2],[736.5,16.9],[735,16.5],[733.9,15],[730.9,14.1],[730.7,15.2],[729.6,14.6],[728.4,13.3],[727.1,13.1],[724.8,13.5],[722.5,13.2],[721,13.7],[719.6,13.1],[718.4,10.7],[717.3,10],[716.6,11.7],[714.8,11.8],[712.6,10.9],[711.4,12.2],[711.9,14.6],[711.4,15.2],[711.2,16.7],[709.6,16.9],[708,15.8],[706.7,16],[706.1,17],[707.6,19.3],[706.3,20.7],[705.4,20.5],[705.5,23.9],[706.2,25.9],[705.8,27.1],[705.9,28.5],[705.4,29.4],[707.1,34.1],[708.7,36.2],[708.7,37],[709.9,37.4],[711.1,40.2],[711.5,41.8],[710.8,45.3],[711.6,47.6],[711.5,48.7],[712,51.8],[711.2,54.2],[711.3,55.1],[710.7,56.2],[711.2,58.2],[710.4,58.8],[710.4,60.2],[711.3,61.8],[711.7,63.7],[710.6,65],[712.7,78.4],[715.1,94.6],[716.5,104.1],[716.9,106],[717.9,112.8],[721.3,134.3],[721.4,137.6],[723.4,137.3],[723.8,136.4],[725.2,134.6],[728.1,133.3],[731.8,132.7],[732.4,131.6],[732.8,128.7],[733.9,127.1],[735.7,126.3],[738.6,125.4],[742,122.1],[742.7,120.8],[751.1,119.5],[765.4,117],[765.1,116.5]]]}},{"type":"Feature","properties":{"st":"FL","district":5,"name":{},"label_x":769.7,"label_y":82.9},"geometry":{"type":"Polygon","coordinates":[[[781.5,50.3],[774.5,51.3],[772.4,51],[771,51.1],[769.8,53.2],[768.8,54],[766.6,53.1],[763.3,53.8],[762.5,53.6],[758.3,55.2],[759,56.3],[758.2,57.3],[754.8,57.9],[753.8,58.3],[754.4,59.5],[754.7,61.3],[753.3,62.6],[752.4,64.3],[749.5,63.8],[748.7,64.8],[749,67],[747.7,68.5],[748.2,69.6],[751.5,72.7],[752,74.8],[749.7,78.9],[749.7,80],[749,81.2],[749.3,84.6],[750.8,86.8],[750.9,88.5],[751.5,91.1],[750.9,93.5],[751.6,97.4],[752.4,98.6],[753.7,99.5],[758.7,101.7],[760.3,102.8],[761.6,104.6],[761.9,106.2],[761.4,108.9],[762,111],[763,113.3],[765.1,116.5],[769.1,115.9],[771.2,114.8],[774.1,114.4],[776.9,113.5],[783.3,111.8],[785.4,115.6],[786.3,113.8],[789.5,115.9],[791.1,114.9],[790.7,112.7],[792.6,112.3],[792.9,113.8],[794.2,113.3],[795.2,112.3],[796.3,114.6],[802.2,111.5],[801.2,107.4],[799,102.4],[797.5,100.2],[794.5,94],[789.4,80.4],[784.4,68.3],[783.9,66.5],[781.9,61.4],[780.8,57.2],[780.3,54.5],[781.4,52.4],[781.5,50.3]]]}},{"type":"Feature","properties":{"st":"FL","district":6,"name":{},"label_x":778.9,"label_y":174.2},"geometry":{"type":"Polygon","coordinates":[[[799.1,229.9],[799.2,228.8],[799.9,227.5],[802.1,225.2],[802.5,223.6],[803.3,222.5],[803.2,220.6],[804.2,219.6],[803.4,218.7],[803.8,216.8],[805.8,216.9],[804.9,210.6],[806.6,210.4],[806.6,209.3],[807.7,209.1],[808.3,210.2],[810.2,210.4],[812.7,211.6],[813.3,206.5],[814.2,204.3],[816.2,203.7],[819.2,202],[825.4,201.8],[828.9,202.6],[827.5,194.8],[826.9,192.5],[828.7,192],[828.2,190.1],[828.6,189.6],[830.5,189.9],[830.5,188.9],[829.3,187.8],[830.4,187.4],[830.2,185.9],[832,185.5],[833.2,186.3],[833.9,185.5],[835.4,185.7],[836.7,184.9],[835.2,183],[835.9,182.5],[834.2,180.2],[834.1,179.4],[838.6,176.2],[837.3,173.8],[831.4,164.7],[825.2,154.7],[825.5,154.6],[821.4,147.5],[819.6,144.5],[817.1,141],[814.9,137.4],[810.8,130],[809.2,126.8],[808,123.9],[805.5,120],[802.6,113.3],[802.2,111.5],[796.3,114.6],[795.2,112.3],[794.2,113.3],[792.9,113.8],[792.6,112.3],[790.7,112.7],[791.1,114.9],[789.5,115.9],[786.3,113.8],[785.4,115.6],[783.3,111.8],[776.9,113.5],[774.1,114.4],[771.2,114.8],[769.1,115.9],[765.1,116.5],[765.4,117],[751.1,119.5],[742.7,120.8],[742,122.1],[738.6,125.4],[735.7,126.3],[733.9,127.1],[732.8,128.7],[732.4,131.6],[731.8,132.7],[728.1,133.3],[725.2,134.6],[723.8,136.4],[723.4,137.3],[721.4,137.6],[721.7,143.2],[722,146],[722.7,150.4],[724.3,161.8],[725.4,168.9],[724.1,170],[723,169.4],[721.6,170.8],[721,170],[720.2,170.4],[720.6,173.1],[720.3,174.6],[719.5,175.9],[717.7,182],[719.2,192.9],[720.3,194.8],[727.6,193.8],[727.8,195],[729,194.8],[729.7,196.8],[728.9,197],[729.3,199.5],[729.2,202],[728.7,202],[728.3,203.8],[722.6,204.6],[722.7,205.9],[718,206.9],[718.6,211.4],[721.6,215.8],[723.3,219.5],[726.7,224.2],[743.5,221.7],[744.8,229.9],[753.7,228.6],[755.2,229],[756,227.3],[759.4,228.4],[760.2,228.3],[763.6,230],[764.8,230.9],[765.9,232.7],[771.5,231.7],[770.4,233.5],[772.4,233.7],[772.9,237.1],[775.2,236.1],[776.4,235.9],[777,236.7],[782.3,235.9],[782.2,234.5],[783.8,234.1],[783.7,233.5],[785.2,232.9],[787.9,232.4],[788.9,231.8],[790.8,231.5],[792.1,230.6],[793.5,230.4],[794.8,231.1],[796.5,230.8],[797.9,230.1],[799.1,229.9]]]}},{"type":"Feature","properties":{"st":"FL","district":7,"name":{},"label_x":837.3,"label_y":214.5},"geometry":{"type":"Polygon","coordinates":[[[799.1,229.9],[800.1,232.5],[800.4,235.6],[800.1,238.6],[798.6,241.5],[796.9,242],[797.5,246.5],[798.1,250.2],[807.9,248.7],[811.2,248.2],[811.7,251.5],[822.1,249.8],[834.6,247.7],[847.9,245.5],[845.6,232.8],[844.4,225.7],[854.3,224],[867.7,221.8],[874.6,220.8],[867.2,212.2],[861.9,205.9],[851.6,193.1],[847.9,188.7],[844,184.9],[842.2,182.1],[838.6,176.2],[834.1,179.4],[834.2,180.2],[835.9,182.5],[835.2,183],[836.7,184.9],[835.4,185.7],[833.9,185.5],[833.2,186.3],[832,185.5],[830.2,185.9],[830.4,187.4],[829.3,187.8],[830.5,188.9],[830.5,189.9],[828.6,189.6],[828.2,190.1],[828.7,192],[826.9,192.5],[827.5,194.8],[828.9,202.6],[825.4,201.8],[819.2,202],[816.2,203.7],[814.2,204.3],[813.3,206.5],[812.7,211.6],[810.2,210.4],[808.3,210.2],[807.7,209.1],[806.6,209.3],[806.6,210.4],[804.9,210.6],[805.8,216.9],[803.8,216.8],[803.4,218.7],[804.2,219.6],[803.2,220.6],[803.3,222.5],[802.5,223.6],[802.1,225.2],[799.9,227.5],[799.2,228.8],[799.1,229.9]]]}},{"type":"Feature","properties":{"st":"FL","district":8,"name":{},"label_x":879.6,"label_y":276.7},"geometry":{"type":"Polygon","coordinates":[[[824.3,267.9],[837.7,265.7],[839.6,277.3],[846.8,276.2],[849.1,275.8],[854.2,275.1],[862.8,273.7],[864.7,285],[867.5,303.2],[866.8,303.3],[868.6,314.7],[871.6,332.7],[881.5,331],[897.9,328.4],[907.7,326.8],[908.7,324.8],[908.9,322.9],[912.6,322.3],[913.3,321.5],[919.4,320.4],[917.4,317.3],[913.6,312.1],[909.3,306.1],[904,298.1],[897.6,281.1],[896,277.1],[895.8,269.7],[896.2,263.3],[899.4,258.8],[900.1,255.5],[899.6,253.3],[898.5,251.2],[895,246.3],[894,243.5],[891.9,239],[881,227.9],[879.4,226.4],[874.6,220.8],[867.7,221.8],[854.3,224],[844.4,225.7],[845.6,232.8],[847.9,245.5],[834.6,247.7],[822.1,249.8],[822.4,252],[823.3,252.9],[824.2,252.7],[824.8,255.8],[824.4,256.7],[822.6,258],[821.2,258.2],[822,259.8],[820.9,260],[823.2,265.9],[824.3,267.9]]]}},{"type":"Feature","properties":{"st":"FL","district":9,"name":{},"label_x":851.3,"label_y":363.1},"geometry":{"type":"Polygon","coordinates":[[[800.2,351.1],[799.6,352.1],[801.5,353.9],[802.4,353.7],[804,355.7],[803.8,357.3],[804.1,358.3],[808.2,362.8],[804.8,363.3],[807.7,382.2],[810.8,402.5],[812.4,412.3],[814.8,427.7],[815.4,431.9],[819.7,461.6],[830.5,460],[830.2,458.3],[832.7,458],[833,459.6],[856.3,456],[859.6,455.5],[872.3,453.5],[882.8,451.7],[885.3,430.7],[885.4,429.6],[890,424.1],[897.3,415.7],[903.6,408],[901.3,394.2],[900.4,388.7],[897.5,371.4],[896,362.7],[895.4,359.2],[900.9,358.2],[917.1,355.6],[921,355.1],[937.3,352.4],[934.3,345.5],[932.6,343.7],[932.2,342.2],[927.2,331.9],[919.4,320.4],[913.3,321.5],[912.6,322.3],[908.9,322.9],[908.7,324.8],[907.7,326.8],[897.9,328.4],[881.5,331],[871.6,332.7],[868.6,314.7],[866.8,303.3],[867.5,303.2],[864.7,285],[862.8,273.7],[854.2,275.1],[849.1,275.8],[846.8,276.2],[839.6,277.3],[837.7,265.7],[824.3,267.9],[820.9,268.7],[819,266.4],[817.6,265.5],[813.7,266.2],[812.4,264.7],[810.8,265.2],[810,266.5],[810.3,268.4],[811,270],[810.6,275.2],[811.4,279.1],[810.2,282],[796,284.2],[797.3,285.9],[797.2,287.7],[797.7,290.6],[796.4,290.9],[796.5,291.6],[798,293.1],[802.1,293.4],[802.4,296.6],[800.1,297.2],[800.7,298.4],[804,299.9],[805.9,302.7],[808,304.3],[809.1,306],[811.5,307.4],[812.3,307.5],[813.3,309.2],[814.7,310.7],[816.2,311.2],[819.1,310.8],[819.3,312.3],[817.4,313.7],[818.2,316.4],[819,316.8],[818.4,319.9],[817.4,319.8],[817.2,320.9],[817.9,323.2],[820.8,324.4],[821.1,325.5],[822.4,325.8],[822.2,327.8],[821.4,328.6],[821.5,329.7],[819.7,331.1],[819.2,331.9],[818.2,332],[818.7,335.5],[815.3,335.1],[815.6,337],[814.5,338.6],[814.4,341.5],[813.6,343.6],[808.5,344.4],[807.6,343.7],[806.1,343.9],[805.5,343.4],[803.5,343.5],[803.7,345.1],[802.4,345.5],[802.9,347.6],[803.8,348.4],[802.1,348.8],[802.4,350.1],[801,350.2],[800.2,351.1]]]}},{"type":"Feature","properties":{"st":"FL","district":10,"name":{},"label_x":807.2,"label_y":259.2},"geometry":{"type":"Polygon","coordinates":[[[797.5,246.5],[795.1,246.9],[794.5,246.2],[793.3,247],[791.7,247],[790.7,246.4],[791,248.9],[788.7,249.2],[789,250.7],[788.6,251.1],[790,253.6],[788.7,254.5],[788.4,255.6],[790.6,256.5],[790.9,258.5],[792.5,257.9],[792.8,260.7],[792,262.2],[798.1,266],[799.1,266.9],[799.7,270.8],[799.6,271.9],[807.3,270.6],[807.4,268.9],[810.3,268.4],[810,266.5],[810.8,265.2],[812.4,264.7],[813.7,266.2],[817.6,265.5],[819,266.4],[820.9,268.7],[824.3,267.9],[823.2,265.9],[820.9,260],[822,259.8],[821.2,258.2],[822.6,258],[824.4,256.7],[824.8,255.8],[824.2,252.7],[823.3,252.9],[822.4,252],[822.1,249.8],[811.7,251.5],[811.2,248.2],[807.9,248.7],[798.1,250.2],[797.5,246.5]]]}},{"type":"Feature","properties":{"st":"FL","district":11,"name":{},"label_x":755.2,"label_y":258.7},"geometry":{"type":"Polygon","coordinates":[[[799.1,229.9],[797.9,230.1],[796.5,230.8],[794.8,231.1],[793.5,230.4],[792.1,230.6],[790.8,231.5],[788.9,231.8],[787.9,232.4],[785.2,232.9],[783.7,233.5],[783.8,234.1],[782.2,234.5],[782.3,235.9],[777,236.7],[776.4,235.9],[775.2,236.1],[772.9,237.1],[772.4,233.7],[770.4,233.5],[771.5,231.7],[765.9,232.7],[764.8,230.9],[763.6,230],[760.2,228.3],[759.4,228.4],[756,227.3],[755.2,229],[753.7,228.6],[744.8,229.9],[743.5,221.7],[726.7,224.2],[717.8,225.5],[708,226.9],[709.6,227.9],[710,229.1],[712.2,231.9],[712.8,233.4],[716.3,235.3],[716.7,236.4],[717.7,237.4],[718.7,237.7],[720.6,239.4],[723.1,240.6],[723.8,242.6],[724.8,243.2],[724.8,244],[723.6,244.9],[723.5,247.8],[721.8,248.2],[721.3,249.4],[719.7,250.9],[719.6,251.6],[718.2,253.3],[718.5,255.1],[717.7,257.4],[717.8,258.9],[716.7,260.6],[718.4,262.5],[720,263.4],[720.5,264.6],[723,266.9],[723.4,268],[724.7,269.1],[725.7,268.5],[729.1,269.4],[729.9,268.2],[731.8,268.8],[732.8,270.8],[734.1,271.3],[735,270.8],[735.6,271.8],[737.1,272.9],[739.4,271.6],[740.9,272.5],[744.2,296],[745.7,294.9],[748.8,294.1],[750.2,294.5],[751.3,295.8],[752.2,295.2],[754.1,295],[753.5,290.9],[763.5,289.3],[763.2,287.5],[769.8,286.5],[770.1,288.3],[777.3,287.2],[796,284.2],[810.2,282],[811.4,279.1],[810.6,275.2],[811,270],[810.3,268.4],[807.4,268.9],[807.3,270.6],[799.6,271.9],[799.7,270.8],[799.1,266.9],[798.1,266],[792,262.2],[792.8,260.7],[792.5,257.9],[790.9,258.5],[790.6,256.5],[788.4,255.6],[788.7,254.5],[790,253.6],[788.6,251.1],[789,250.7],[788.7,249.2],[791,248.9],[790.7,246.4],[791.7,247],[793.3,247],[794.5,246.2],[795.1,246.9],[797.5,246.5],[796.9,242],[798.6,241.5],[800.1,238.6],[800.4,235.6],[800.1,232.5],[799.1,229.9]]]}},{"type":"Feature","properties":{"st":"FL","district":12,"name":{},"label_x":695.5,"label_y":314},"geometry":{"type":"Polygon","coordinates":[[[711.2,341.8],[710.3,335.2],[711,334.2],[711.5,331.6],[710.9,327.9],[710.4,327.6],[710,324.5],[710.6,323.7],[711.8,318.8],[712.6,316.8],[716.7,316.2],[715.9,310.6],[716.5,306.9],[717.3,305.6],[717.7,304.1],[717.2,299.8],[717.1,294.9],[716.5,290.8],[719.6,286.8],[719.6,285.6],[710.3,287],[699.3,288.6],[680.8,291.3],[660.4,294.5],[660.4,296.5],[659.3,303.1],[656.1,304.9],[654,306.7],[652.7,308.2],[651,310.6],[649.9,313.2],[649.4,314.8],[675.5,311.3],[675.6,312.4],[674.8,312.7],[674.5,315.3],[674.8,317.4],[677.3,316.6],[684.7,315.6],[685.2,319.5],[686.4,319.6],[686.8,320.3],[688.2,328.6],[689.3,335.9],[690.6,336.4],[693.7,338],[694,336.9],[694.9,336.1],[700.2,335.3],[700.4,337],[702.9,336.6],[703,337.9],[704.7,338.1],[705.1,340.8],[706.8,341.1],[707.2,343.6],[709,343.4],[711.2,341.8]]]}},{"type":"Feature","properties":{"st":"FL","district":13,"name":{},"label_x":671.7,"label_y":339.9},"geometry":{"type":"Polygon","coordinates":[[[649.4,314.8],[648.9,318.3],[649,320.8],[649.4,323.3],[651.2,329.8],[651.4,331.8],[652.2,334.8],[652.9,338.3],[654.2,341.6],[654.6,343.2],[654.8,345.7],[654.2,350.2],[654.1,355.5],[654.3,358.6],[655.4,363.1],[656.3,365.5],[669.9,363.4],[674,362.7],[672.6,360.8],[673.6,360.7],[675.5,361.4],[676.1,361],[675.9,359.6],[677.9,359.8],[682,359.3],[684.6,361],[684.9,362.6],[686.9,362.1],[686.8,361.5],[688.8,360.9],[691.1,362.6],[691.6,363.3],[695.4,362.8],[696.1,363.1],[697.7,362.9],[698.2,361.8],[702.1,361.2],[701.1,359],[699.8,351.7],[699.3,349.9],[698.3,348.2],[696,346.3],[694.4,345.9],[690.7,345.6],[689.3,335.9],[688.2,328.6],[686.8,320.3],[686.4,319.6],[685.2,319.5],[684.7,315.6],[677.3,316.6],[674.8,317.4],[674.5,315.3],[674.8,312.7],[675.6,312.4],[675.5,311.3],[649.4,314.8]]]}},{"type":"Feature","properties":{"st":"FL","district":14,"name":{},"label_x":726,"label_y":350.8},"geometry":{"type":"Polygon","coordinates":[[[751.4,344.6],[751,341.5],[748,322.1],[742.7,322.9],[742.3,321.7],[739.4,322.1],[739.9,323.7],[725.1,325.9],[723.5,327.1],[724.5,334],[722.1,334.9],[722.8,339.4],[722.8,343.8],[721.7,347.2],[719.6,347],[719.2,344.4],[718,344.6],[717.8,343.4],[716.1,343.6],[715.9,341.8],[713.7,341.4],[711.2,341.8],[709,343.4],[707.2,343.6],[706.8,341.1],[705.1,340.8],[704.7,338.1],[703,337.9],[702.9,336.6],[700.4,337],[700.2,335.3],[694.9,336.1],[694,336.9],[693.7,338],[690.6,336.4],[689.3,335.9],[690.7,345.6],[694.4,345.9],[696,346.3],[698.3,348.2],[699.3,349.9],[699.8,351.7],[701.1,359],[702.1,361.2],[704.1,362.3],[703.4,365.8],[699.8,379.1],[705.6,378.1],[710.6,377.4],[730.8,374.4],[748.3,371.9],[755.4,370.8],[753.2,356.3],[752,347.4],[751.4,344.6]]]}},{"type":"Feature","properties":{"st":"FL","district":15,"name":{},"label_x":701.6,"label_y":283.6},"geometry":{"type":"Polygon","coordinates":[[[711.2,341.8],[713.7,341.4],[715.9,341.8],[716.1,343.6],[717.8,343.4],[718,344.6],[719.2,344.4],[719.6,347],[721.7,347.2],[722.8,343.8],[722.8,339.4],[722.1,334.9],[724.5,334],[723.5,327.1],[725.1,325.9],[739.9,323.7],[739.4,322.1],[742.3,321.7],[742.7,322.9],[748,322.1],[746.5,311.9],[741.5,312.6],[740,302.7],[745.1,302],[744.2,296],[740.9,272.5],[739.4,271.6],[737.1,272.9],[735.6,271.8],[735,270.8],[734.1,271.3],[732.8,270.8],[731.8,268.8],[729.9,268.2],[729.1,269.4],[725.7,268.5],[724.7,269.1],[723.4,268],[723,266.9],[720.5,264.6],[720,263.4],[718.4,262.5],[716.7,260.6],[717.8,258.9],[717.7,257.4],[718.5,255.1],[718.2,253.3],[719.6,251.6],[719.7,250.9],[721.3,249.4],[721.8,248.2],[723.5,247.8],[723.6,244.9],[724.8,244],[724.8,243.2],[723.8,242.6],[723.1,240.6],[720.6,239.4],[718.7,237.7],[717.7,237.4],[716.7,236.4],[716.3,235.3],[712.8,233.4],[712.2,231.9],[710,229.1],[709.6,227.9],[708,226.9],[707.4,225.5],[705.9,225],[704.6,224.2],[702.5,223.8],[701.9,222.9],[699.2,222.7],[698.1,221.8],[696.6,222.5],[695.3,221.7],[693.9,220.3],[690.1,218.9],[689,219.1],[688.2,220.4],[686,220.9],[684.4,220.5],[682.5,222.1],[681.8,222],[680.6,223],[678.9,223],[678.2,224.1],[678.3,225],[677.4,225.6],[673.8,224.7],[670.8,224.6],[669.3,223.9],[667.2,224.6],[665.7,226.6],[663.3,228.5],[662.8,229.7],[639.2,233.3],[620.6,236.1],[624.6,238.2],[626.9,238.9],[629.9,239.2],[631.7,239.2],[637.7,238.5],[641.9,237.2],[645,235.4],[645.2,237.7],[645.9,240.8],[646.7,242.7],[648,245],[649.6,247.1],[649.2,249.5],[649.2,252.1],[649.7,255.6],[650.7,258.3],[652.8,262],[654.6,264.4],[656.1,268.4],[656.8,270.7],[658.2,273.6],[659.5,275.5],[661.7,277.8],[660.8,281.6],[660.8,285.6],[661.6,289],[660.5,292.8],[660.4,294.5],[680.8,291.3],[699.3,288.6],[710.3,287],[719.6,285.6],[719.6,286.8],[716.5,290.8],[717.1,294.9],[717.2,299.8],[717.7,304.1],[717.3,305.6],[716.5,306.9],[715.9,310.6],[716.7,316.2],[712.6,316.8],[711.8,318.8],[710.6,323.7],[710,324.5],[710.4,327.6],[710.9,327.9],[711.5,331.6],[711,334.2],[710.3,335.2],[711.2,341.8]]]}},{"type":"Feature","properties":{"st":"FL","district":16,"name":{},"label_x":738.3,"label_y":390.9},"geometry":{"type":"Polygon","coordinates":[[[800.2,351.1],[799,351.3],[796.8,348.7],[795.8,348.9],[796,350.1],[795.2,350.3],[794.5,351.6],[792.3,348.9],[791,349.5],[790.8,348.3],[789.1,349],[788.7,346.7],[787.9,346.8],[787.7,345.2],[785.6,346.3],[774.9,347.9],[775.6,348.7],[774.9,349.6],[773.8,348.9],[772.2,347.1],[770.2,347.2],[767.6,347.5],[766.9,347.3],[764.6,347.7],[762.1,346.8],[760.5,346.6],[760,345.9],[759.5,342.5],[757.2,342.9],[755.8,342.7],[754.6,343.3],[754.5,344.1],[751.4,344.6],[752,347.4],[753.2,356.3],[755.4,370.8],[748.3,371.9],[730.8,374.4],[710.6,377.4],[705.6,378.1],[699.8,379.1],[703.4,365.8],[704.1,362.3],[702.1,361.2],[698.2,361.8],[697.7,362.9],[696.1,363.1],[695.4,362.8],[691.6,363.3],[691.1,362.6],[688.8,360.9],[686.8,361.5],[686.9,362.1],[684.9,362.6],[684.6,361],[682,359.3],[677.9,359.8],[675.9,359.6],[676.1,361],[675.5,361.4],[673.6,360.7],[672.6,360.8],[674,362.7],[669.9,363.4],[656.3,365.5],[658.6,369.6],[662.1,374.1],[664.2,375.9],[666.9,377.8],[668,379],[668.1,381.4],[667.5,384.2],[667.2,386.8],[667.3,389.2],[668,392.5],[669.2,395.9],[671.3,399.2],[672.6,402],[674.1,404.1],[675.7,406],[677.4,407.5],[679.1,411],[704.8,407.6],[719.8,405.5],[720.1,406.6],[721.9,420.6],[721.9,422.4],[722.3,423.9],[723.7,426.4],[724.8,429.4],[725.4,430.4],[730,435.2],[731.2,435.8],[733.7,435.4],[736.5,434.7],[738.1,434.6],[741.9,435.3],[751.7,434],[751.8,436],[752.5,436.4],[760,435.5],[765,439.2],[765.3,439.7],[771.9,438.8],[772.7,438.2],[792.1,435.5],[805.4,433.5],[815.4,431.9],[814.8,427.7],[812.4,412.3],[810.8,402.5],[807.7,382.2],[804.8,363.3],[808.2,362.8],[804.1,358.3],[803.8,357.3],[804,355.7],[802.4,353.7],[801.5,353.9],[799.6,352.1],[800.2,351.1]]]}},{"type":"Feature","properties":{"st":"FL","district":17,"name":{},"label_x":763.7,"label_y":449.2},"geometry":{"type":"Polygon","coordinates":[[[728.1,473.1],[743.8,470.7],[748.2,470],[752.7,470.2],[754.2,471.1],[755.2,471.1],[782.4,467.1],[785.7,471.8],[786.7,473.8],[786.9,476.5],[789.4,479],[788.3,480.3],[786.7,482.7],[787.2,484.9],[789.1,485.9],[789.8,487.5],[790.5,488.2],[791.7,487.4],[791.5,486],[793.1,485.7],[794.9,486.4],[795.1,487.4],[796.5,486.9],[796.9,488],[798.5,487.6],[799.2,486.8],[800.6,487.8],[800.9,489.8],[803.2,489.4],[806.2,487],[807.7,485],[807.8,483.8],[806.8,479.8],[809,479.1],[809.9,477.5],[811.6,477.2],[811.8,476.1],[811.2,472.4],[816.5,471.5],[817.8,471.7],[820.9,471.2],[821,470.8],[819.7,461.6],[815.4,431.9],[805.4,433.5],[792.1,435.5],[772.7,438.2],[771.9,438.8],[765.3,439.7],[765,439.2],[760,435.5],[752.5,436.4],[751.8,436],[751.7,434],[741.9,435.3],[738.1,434.6],[736.5,434.7],[733.7,435.4],[731.2,435.8],[730,435.2],[725.4,430.4],[724.8,429.4],[723.7,426.4],[722.3,423.9],[721.9,422.4],[721.9,420.6],[720.1,406.6],[719.8,405.5],[704.8,407.6],[679.1,411],[680.2,413],[682.2,415.5],[684.1,417.2],[686.8,419.1],[688.5,421.1],[690.7,423.5],[693.1,425.5],[694,427.6],[696.3,431],[698.8,433.4],[701,435],[701.8,435.9],[704,439.6],[705.7,441.9],[706.6,444.2],[708.6,447.4],[710.6,451.1],[712.3,453.5],[715.3,457.1],[717.2,460],[720,463.4],[723.6,468.2],[726,471],[728.1,473.1]]]}},{"type":"Feature","properties":{"st":"FL","district":18,"name":{},"label_x":783.1,"label_y":318.3},"geometry":{"type":"Polygon","coordinates":[[[748,322.1],[751,341.5],[751.4,344.6],[754.5,344.1],[754.6,343.3],[755.8,342.7],[757.2,342.9],[759.5,342.5],[760,345.9],[760.5,346.6],[762.1,346.8],[764.6,347.7],[766.9,347.3],[767.6,347.5],[770.2,347.2],[772.2,347.1],[773.8,348.9],[774.9,349.6],[775.6,348.7],[774.9,347.9],[785.6,346.3],[787.7,345.2],[787.9,346.8],[788.7,346.7],[789.1,349],[790.8,348.3],[791,349.5],[792.3,348.9],[794.5,351.6],[795.2,350.3],[796,350.1],[795.8,348.9],[796.8,348.7],[799,351.3],[800.2,351.1],[801,350.2],[802.4,350.1],[802.1,348.8],[803.8,348.4],[802.9,347.6],[802.4,345.5],[803.7,345.1],[803.5,343.5],[805.5,343.4],[806.1,343.9],[807.6,343.7],[808.5,344.4],[813.6,343.6],[814.4,341.5],[814.5,338.6],[815.6,337],[815.3,335.1],[818.7,335.5],[818.2,332],[819.2,331.9],[819.7,331.1],[821.5,329.7],[821.4,328.6],[822.2,327.8],[822.4,325.8],[821.1,325.5],[820.8,324.4],[817.9,323.2],[817.2,320.9],[817.4,319.8],[818.4,319.9],[819,316.8],[818.2,316.4],[817.4,313.7],[819.3,312.3],[819.1,310.8],[816.2,311.2],[814.7,310.7],[813.3,309.2],[812.3,307.5],[811.5,307.4],[809.1,306],[808,304.3],[805.9,302.7],[804,299.9],[800.7,298.4],[800.1,297.2],[802.4,296.6],[802.1,293.4],[798,293.1],[796.5,291.6],[796.4,290.9],[797.7,290.6],[797.2,287.7],[797.3,285.9],[796,284.2],[777.3,287.2],[770.1,288.3],[769.8,286.5],[763.2,287.5],[763.5,289.3],[753.5,290.9],[754.1,295],[752.2,295.2],[751.3,295.8],[750.2,294.5],[748.8,294.1],[745.7,294.9],[744.2,296],[745.1,302],[740,302.7],[741.5,312.6],[746.5,311.9],[748,322.1]]]}},{"type":"Feature","properties":{"st":"FL","district":19,"name":{},"label_x":780.5,"label_y":506.3},"geometry":{"type":"Polygon","coordinates":[[[788.9,539.9],[805.4,535.8],[806.9,540.9],[807.6,542.3],[809.2,542],[808.3,536.2],[809.9,535.2],[813.6,534.6],[813.7,535.6],[815.3,536.1],[818.3,535.8],[817.7,531.9],[816.1,522.3],[814.6,514],[818,513.5],[816,502],[826,500.3],[824.4,491.1],[821,470.8],[820.9,471.2],[817.8,471.7],[816.5,471.5],[811.2,472.4],[811.8,476.1],[811.6,477.2],[809.9,477.5],[809,479.1],[806.8,479.8],[807.8,483.8],[807.7,485],[806.2,487],[803.2,489.4],[800.9,489.8],[800.6,487.8],[799.2,486.8],[798.5,487.6],[796.9,488],[796.5,486.9],[795.1,487.4],[794.9,486.4],[793.1,485.7],[791.5,486],[791.7,487.4],[790.5,488.2],[789.8,487.5],[789.1,485.9],[787.2,484.9],[786.7,482.7],[788.3,480.3],[789.4,479],[786.9,476.5],[786.7,473.8],[785.7,471.8],[782.4,467.1],[755.2,471.1],[754.2,471.1],[752.7,470.2],[748.2,470],[743.8,470.7],[728.1,473.1],[730.2,475.4],[732,478.4],[732.5,481.6],[732.7,483.9],[733.2,486.7],[733.9,488.5],[735.7,491.9],[737,493.8],[738.8,495.8],[739.8,498.5],[741.7,501.7],[743.1,503.4],[745.3,509.2],[747,512.3],[749.1,515],[750.9,516.9],[753.8,519],[756.9,520.5],[760.7,522.8],[762.7,523.6],[766.1,524.6],[769.2,525.2],[772.2,525.3],[775.9,525],[780.2,523.9],[782.9,522.5],[784.1,524.5],[786.2,530.2],[787.7,536.9],[788.9,539.9]]]}},{"type":"Feature","properties":{"st":"FL","district":20,"name":{},"label_x":966.9,"label_y":500},"geometry":{"type":"Polygon","coordinates":[[[969,513.6],[970.7,513.4],[976.7,512.1],[976.6,511],[977.2,510.3],[978.5,510],[978.7,506.3],[977.4,503.3],[977,501],[975.3,500.7],[975.2,499.3],[976.1,498.6],[977,487.9],[976.7,486.9],[974.1,487.3],[974.4,489.9],[973.7,490],[973.9,491.5],[970.7,492.3],[970.9,494],[967.6,494.8],[959.3,496.1],[959.6,497.7],[958.1,497.9],[960.3,511.6],[961.4,511.5],[961.9,513],[967.1,512.2],[968,512.5],[967.6,513.8],[969,513.6]]]}},{"type":"Feature","properties":{"st":"FL","district":21,"name":{},"label_x":933.6,"label_y":399.3},"geometry":{"type":"Polygon","coordinates":[[[885.4,429.6],[899.2,427.3],[911.4,425.5],[921.5,423.8],[922.5,430.5],[930.1,435.8],[936.5,440.1],[940,442.8],[947.7,441.6],[956.6,440],[957.1,443.2],[956.3,443.5],[956.7,446.9],[958.3,446.2],[958.7,449.5],[965.7,448.5],[965.1,446],[965.9,443.7],[965.3,438.5],[967,438.3],[966.9,436.9],[968.6,437],[968.3,434.8],[973.5,434.1],[974,435.4],[975.1,436.1],[981.2,435.1],[980.7,432],[978.1,426],[977,423.2],[972.7,413.8],[969.9,407.5],[966.3,401],[963.8,397.5],[961.8,393.5],[961.3,391.6],[959.6,389.4],[959.2,388.4],[957,385.6],[951,376.1],[948.2,371.5],[944.8,366.4],[942.7,362.3],[942.1,359.8],[941.5,358.9],[940,357.3],[937.3,352.4],[921,355.1],[917.1,355.6],[900.9,358.2],[895.4,359.2],[896,362.7],[897.5,371.4],[900.4,388.7],[901.3,394.2],[903.6,408],[897.3,415.7],[890,424.1],[885.4,429.6]]]}},{"type":"Feature","properties":{"st":"FL","district":22,"name":{},"label_x":892,"label_y":499.1},"geometry":{"type":"Polygon","coordinates":[[[821,470.8],[824.4,491.1],[826,500.3],[816,502],[818,513.5],[814.6,514],[816.1,522.3],[817.7,531.9],[818.3,535.8],[815.3,536.1],[813.7,535.6],[813.6,534.6],[809.9,535.2],[808.3,536.2],[809.2,542],[807.6,542.3],[806.9,540.9],[805.4,535.8],[788.9,539.9],[790.3,546],[792,549.7],[796.3,556.2],[797.4,558.3],[798.3,561.6],[800.2,565.3],[801.6,566.9],[803.1,569.6],[804.3,571.3],[807.1,574.1],[820,572.1],[847.8,567.6],[858.3,566],[863,565.2],[881.5,562.4],[884,562],[896.3,560],[907.4,558],[905.5,546.6],[903.9,536.3],[901.3,522.5],[900.2,517.2],[901.5,517.1],[918,517.2],[919.3,517.1],[944.3,513.1],[945.9,516.6],[946.9,522.3],[948.9,522],[970.1,518],[969,513.6],[967.6,513.8],[968,512.5],[967.1,512.2],[961.9,513],[961.4,511.5],[960.3,511.6],[958.1,497.9],[959.6,497.7],[959.3,496.1],[967.6,494.8],[970.9,494],[970.7,492.3],[969.8,488],[966.4,488.6],[964.4,477.1],[963.9,474.6],[961.8,463],[961.2,459.3],[964.5,458.8],[964,455.8],[965.6,455.5],[965.1,452],[965.1,450.1],[966,450.1],[965.7,448.5],[958.7,449.5],[958.3,446.2],[956.7,446.9],[956.3,443.5],[957.1,443.2],[956.6,440],[947.7,441.6],[940,442.8],[936.5,440.1],[930.1,435.8],[922.5,430.5],[921.5,423.8],[911.4,425.5],[899.2,427.3],[885.4,429.6],[885.3,430.7],[882.8,451.7],[872.3,453.5],[859.6,455.5],[856.3,456],[833,459.6],[832.7,458],[830.2,458.3],[830.5,460],[819.7,461.6],[821,470.8]]]}},{"type":"Feature","properties":{"st":"FL","district":23,"name":{},"label_x":974.8,"label_y":455.2},"geometry":{"type":"Polygon","coordinates":[[[981.2,435.1],[975.1,436.1],[974,435.4],[973.5,434.1],[968.3,434.8],[968.6,437],[966.9,436.9],[967,438.3],[965.3,438.5],[965.9,443.7],[965.1,446],[965.7,448.5],[966,450.1],[965.1,450.1],[965.1,452],[965.6,455.5],[964,455.8],[964.5,458.8],[961.2,459.3],[961.8,463],[963.9,474.6],[967.3,474],[967.6,475.6],[970.1,475.2],[970.2,476.1],[971.5,475.9],[971.6,476.7],[972.9,476.4],[972.4,474],[974.1,473.7],[974.3,474.5],[977.5,473.9],[977.4,470],[979.1,469.5],[979.3,471.9],[984.5,471],[984.5,467.7],[984.3,463.2],[984.5,462.7],[984.3,457.9],[984,454.9],[982.9,448.8],[982.6,445.8],[982.5,442.3],[981.7,440.3],[981.2,437.6],[981.2,435.1]]]}},{"type":"Feature","properties":{"st":"FL","district":24,"name":{},"label_x":972.5,"label_y":533.8},"geometry":{"type":"Polygon","coordinates":[[[970.9,521.7],[968.9,522.1],[968.7,523.8],[964.4,524.7],[966.4,534.7],[964.7,535],[965.4,538.3],[966.1,539.7],[969,539.2],[969.6,543],[970.2,545.2],[971.4,546.8],[972.3,547],[972.6,548.6],[970.9,548.9],[971.9,549.6],[974.7,549.6],[976.1,548.6],[978,548.7],[978.9,548.3],[980.2,549],[980.5,545.2],[979.4,540],[980.8,539.8],[980.8,538.3],[980.1,537.5],[978.6,537.4],[978.9,532.5],[976.7,532.9],[975.3,532.3],[975.4,530.6],[976.9,528.9],[976.9,527.4],[978.7,527],[978.2,524.5],[978.9,523.7],[978.4,522.6],[977.5,517.5],[975.2,517.5],[975.5,520.8],[970.9,521.7]]]}},{"type":"Feature","properties":{"st":"FL","district":25,"name":{},"label_x":981.5,"label_y":511.5},"geometry":{"type":"Polygon","coordinates":[[[970.9,521.7],[975.5,520.8],[975.2,517.5],[977.5,517.5],[978.4,522.6],[978.9,523.7],[978.2,524.5],[978.7,527],[976.9,527.4],[976.9,528.9],[975.4,530.6],[975.3,532.3],[976.7,532.9],[978.9,532.5],[978.6,537.4],[980.1,537.5],[980.8,538.3],[980.8,539.8],[979.4,540],[980.5,545.2],[980.2,549],[982.9,549.8],[982.6,550.6],[984.5,551.9],[989.2,554.2],[990.2,552.8],[990.8,550.2],[990.1,547.5],[990.2,544.7],[989.6,538.7],[988.8,535.9],[988.7,534],[988.2,532.2],[987.3,525.5],[987.3,524.2],[986.4,514.4],[986.6,512.6],[986,507.6],[985.7,500.3],[985.8,496.2],[986.1,494],[985.6,489.8],[985.7,486.1],[985,481.5],[984.5,473.5],[984.5,471],[979.3,471.9],[979.1,469.5],[977.4,470],[977.5,473.9],[974.3,474.5],[974.1,473.7],[972.4,474],[972.9,476.4],[971.6,476.7],[971.5,475.9],[970.2,476.1],[970.1,475.2],[967.6,475.6],[967.3,474],[963.9,474.6],[964.4,477.1],[966.4,488.6],[969.8,488],[970.7,492.3],[973.9,491.5],[973.7,490],[974.4,489.9],[974.1,487.3],[976.7,486.9],[977,487.9],[976.1,498.6],[975.2,499.3],[975.3,500.7],[977,501],[977.4,503.3],[978.7,506.3],[978.5,510],[977.2,510.3],[976.6,511],[976.7,512.1],[970.7,513.4],[969,513.6],[970.1,518],[970.9,521.7]]]}},{"type":"Feature","properties":{"st":"FL","district":26,"name":{},"label_x":934.6,"label_y":537.3},"geometry":{"type":"Polygon","coordinates":[[[970.1,518],[948.9,522],[946.9,522.3],[945.9,516.6],[944.3,513.1],[919.3,517.1],[918,517.2],[901.5,517.1],[900.2,517.2],[901.3,522.5],[903.9,536.3],[905.5,546.6],[907.4,558],[912.6,562],[913,562.1],[928.4,559.6],[928.8,559.7],[955,555.4],[954.9,552.8],[958,552.5],[957.7,550.8],[959.3,550.5],[959.6,552.3],[964.1,551.5],[965.1,551.5],[966.2,550.9],[969.3,550.4],[970,549.2],[970.9,548.9],[972.6,548.6],[972.3,547],[971.4,546.8],[970.2,545.2],[969.6,543],[969,539.2],[966.1,539.7],[965.4,538.3],[964.7,535],[966.4,534.7],[964.4,524.7],[968.7,523.8],[968.9,522.1],[970.9,521.7],[970.1,518]]]}},{"type":"Feature","properties":{"st":"FL","district":27,"name":{},"label_x":974.8,"label_y":565.1},"geometry":{"type":"Polygon","coordinates":[[[989.2,554.2],[984.5,551.9],[982.6,550.6],[982.9,549.8],[980.2,549],[978.9,548.3],[978,548.7],[976.1,548.6],[974.7,549.6],[971.9,549.6],[970.9,548.9],[970,549.2],[969.3,550.4],[966.2,550.9],[965.1,551.5],[964.1,551.5],[959.6,552.3],[960.8,558.8],[959.4,559.9],[959.9,562.4],[959.7,563.1],[961,569.4],[961.4,569.8],[961.9,572.1],[963.5,574.3],[963,575.2],[964.1,575.9],[964.7,577.1],[967,578.2],[967.8,578],[968.7,579],[969.6,579],[977.8,577.8],[983.8,574.9],[989.7,575.5],[990.5,574.6],[990.9,573.1],[990.8,571.1],[990.1,568.2],[989.7,567.2],[989.3,562.4],[989.5,559.9],[989.2,558.4],[989.4,556.9],[989.2,554.2]]]}},{"type":"Feature","properties":{"st":"FL","district":28,"name":{},"label_x":921,"label_y":641.2},"geometry":{"type":"MultiPolygon","coordinates":[[[[990.5,574.6],[989.7,575.5],[983.8,574.9],[977.8,577.8],[969.6,579],[968.7,579],[967.8,578],[967,578.2],[964.7,577.1],[964.1,575.9],[963,575.2],[963.5,574.3],[961.9,572.1],[961.4,569.8],[961,569.4],[959.7,563.1],[959.9,562.4],[959.4,559.9],[960.8,558.8],[959.6,552.3],[959.3,550.5],[957.7,550.8],[958,552.5],[954.9,552.8],[955,555.4],[928.8,559.7],[928.4,559.6],[913,562.1],[912.6,562],[907.4,558],[896.3,560],[884,562],[881.5,562.4],[863,565.2],[858.3,566],[847.8,567.6],[820,572.1],[807.1,574.1],[807.9,574.7],[811.2,579.3],[812.6,580.9],[814.8,582.7],[817.8,584.3],[820.1,585.2],[823.8,585.8],[827,585.8],[831.8,585],[834.5,584.1],[837.1,582.7],[839.8,583.9],[843.5,585],[844.2,587],[845.4,589],[846.7,590.7],[848.6,592.4],[850.2,593.5],[852.8,594.7],[854.9,595.3],[857.1,597.9],[860.1,600.7],[862.4,605.5],[863.7,607.6],[866.3,610.4],[868.1,611.6],[869.8,615.8],[869.2,622.6],[868.8,624.8],[868.7,627.3],[869,629.4],[870,632.7],[871.4,635.5],[873.2,638.3],[874.7,640],[875.8,642.9],[877.2,645.1],[878.5,646.6],[880.7,648.5],[882.7,649.8],[886,651.1],[887.5,652.5],[889.1,653.4],[891.3,655.8],[889.7,656],[886.9,655.4],[884.6,655.2],[881.2,655.6],[877.7,656.7],[875.5,658],[872.7,658.7],[868.8,658.5],[866,658.9],[858.5,661.4],[856.6,662.4],[852,665.7],[849.5,667.6],[845.8,671.2],[843.2,672.5],[841.6,673.7],[839.1,676.1],[835.6,678.5],[832.4,681],[830.9,682.8],[829.6,683.2],[827.3,684.3],[821.5,688.6],[819.7,690.3],[817.3,690.8],[814.3,691.8],[811.2,693.2],[808.4,695],[806.5,696.6],[804.4,696.1],[801.4,695.6],[798.8,695.5],[795.3,695.7],[790.7,696.8],[788.2,697.9],[784.6,700.5],[782.3,703.2],[780.2,706.8],[778.9,710],[778.2,712.4],[777.5,717],[789.1,715.3],[788.8,716.8],[788.9,718.7],[789.4,720.2],[790.6,722],[791.6,722.9],[793.6,723.9],[795.7,724.2],[800.8,723.4],[802.5,722.8],[804.5,721.2],[805.6,719.7],[806.7,720.6],[807.7,722.4],[809.7,723.8],[810.9,724.1],[816.2,724.1],[815.7,725.8],[816.2,728.6],[817.9,730.6],[820.3,731.6],[821.5,731.7],[824,731.3],[825.6,730.1],[828.5,729.9],[831.1,729.1],[833.9,727.5],[836.1,724.7],[836.5,722.2],[836,720.3],[835.3,718.9],[836.8,718.2],[836.9,720.1],[837.6,721.8],[838.6,723.2],[840.3,724.3],[842.4,724.8],[844.3,724.6],[847.7,723],[851.1,721.7],[852.2,720.9],[854.5,720.2],[855.8,719.3],[856.8,718],[858.9,717.5],[861.3,715.6],[862.5,713.8],[862.9,711.8],[862.5,709.8],[861.4,707.9],[862.6,706.4],[867,707.1],[869.3,706.5],[872.3,704.3],[876,703.8],[878.1,702.9],[878.9,702.2],[884,700],[885.1,699.3],[887.4,698.9],[889.1,697.9],[890.3,696.2],[892.7,695.1],[893.8,694],[895.9,693.7],[898.4,692.3],[899.4,691.1],[900.2,691.7],[902,692.1],[904.9,692.1],[907.1,691.7],[910,690.5],[911.5,688.6],[912.1,687.3],[914.4,686.5],[918.5,683.1],[920.7,681.7],[922.1,680.2],[924.7,679.4],[926.1,678.2],[928.4,675.2],[929.9,674.8],[932.3,673.1],[933.5,673.1],[935.3,672.6],[936.5,671.9],[937.9,670.5],[938.8,668.9],[942.3,666.6],[945.4,663.7],[947.7,662.6],[950.6,659.5],[951.3,658.2],[952.7,656.9],[953.6,655.1],[955.3,653.5],[958.1,651.7],[959.2,650.3],[960,648.2],[961.5,647.7],[964.5,646.2],[965.9,644.6],[966.9,641.9],[966.8,640.5],[968.2,639.6],[969.6,638.4],[970.9,635.6],[970.7,633.1],[972.2,632.2],[973.8,630.8],[975.9,627.5],[978.2,621.9],[978.5,618.8],[979.8,615],[980.4,613.9],[981.4,610.8],[982.9,608],[983.6,605],[985.5,601.9],[986.6,599.3],[986.7,597.1],[987.1,595],[988.5,592.9],[989.1,591.2],[989.2,589.4],[989.7,587],[991.8,585.7],[992.8,584.3],[993.4,583],[993.5,581.1],[993.1,579.6],[992,577.7],[990.5,576.6],[990.5,574.6]]],[[[710.8,727.5],[713.3,727.8],[716.2,726.5],[719.5,727.5],[721.7,727.3],[723.2,726.5],[725.1,724.4],[743,721.9],[743.7,719.3],[743.9,716.7],[743.7,713.8],[742.6,710.1],[741.2,707.5],[739.7,705.6],[738,703.9],[736.1,702.5],[733.1,701],[729.4,700],[725.7,699.8],[723.6,700.1],[720.8,700.7],[717.5,701.2],[715,701.9],[712.4,703.1],[709.8,703.7],[706.4,705.2],[703.9,706.9],[699.4,711.1],[698.1,712.7],[696.3,716.1],[695.2,720.1],[695.1,723.4],[695.3,725.4],[696.4,728.8],[697.2,730.4],[699.2,733.3],[701.4,735.4],[702.9,736.4],[705.5,737.8],[708.8,738.8],[707.2,726.9],[709,726.7],[710.8,727.5]]]]}}]}
