{"type":"FeatureCollection","frame":{"width":1152,"height":748.8,"y":"down"},"note":"Equal-weight state cartogram: one 84 px square per state, DC included, tile-grid positions. Every state counts the same.","features":[{"type":"Feature","properties":{"st":"AK","fips":"02","name":"Alaska","col":1,"row":1,"label_x":116,"label_y":52.4},"geometry":{"type":"Polygon","coordinates":[[[74,10.4],[158,10.4],[158,94.4],[74,94.4],[74,10.4]]]}},{"type":"Feature","properties":{"st":"AL","fips":"01","name":"Alabama","col":7,"row":7,"label_x":668,"label_y":604.4},"geometry":{"type":"Polygon","coordinates":[[[626,562.4],[710,562.4],[710,646.4],[626,646.4],[626,562.4]]]}},{"type":"Feature","properties":{"st":"AR","fips":"05","name":"Arkansas","col":5,"row":6,"label_x":484,"label_y":512.4},"geometry":{"type":"Polygon","coordinates":[[[442,470.4],[526,470.4],[526,554.4],[442,554.4],[442,470.4]]]}},{"type":"Feature","properties":{"st":"AZ","fips":"04","name":"Arizona","col":2,"row":6,"label_x":208,"label_y":512.4},"geometry":{"type":"Polygon","coordinates":[[[166,470.4],[250,470.4],[250,554.4],[166,554.4],[166,470.4]]]}},{"type":"Feature","properties":{"st":"CA","fips":"06","name":"California","col":1,"row":5,"label_x":116,"label_y":420.4},"geometry":{"type":"Polygon","coordinates":[[[74,378.4],[158,378.4],[158,462.4],[74,462.4],[74,378.4]]]}},{"type":"Feature","properties":{"st":"CO","fips":"08","name":"Colorado","col":3,"row":5,"label_x":300,"label_y":420.4},"geometry":{"type":"Polygon","coordinates":[[[258,378.4],[342,378.4],[342,462.4],[258,462.4],[258,378.4]]]}},{"type":"Feature","properties":{"st":"CT","fips":"09","name":"Connecticut","col":11,"row":4,"label_x":1036,"label_y":328.4},"geometry":{"type":"Polygon","coordinates":[[[994,286.4],[1078,286.4],[1078,370.4],[994,370.4],[994,286.4]]]}},{"type":"Feature","properties":{"st":"DC","fips":"11","name":"District of Columbia","col":9,"row":6,"label_x":852,"label_y":512.4},"geometry":{"type":"Polygon","coordinates":[[[810,470.4],[894,470.4],[894,554.4],[810,554.4],[810,470.4]]]}},{"type":"Feature","properties":{"st":"DE","fips":"10","name":"Delaware","col":10,"row":5,"label_x":944,"label_y":420.4},"geometry":{"type":"Polygon","coordinates":[[[902,378.4],[986,378.4],[986,462.4],[902,462.4],[902,378.4]]]}},{"type":"Feature","properties":{"st":"FL","fips":"12","name":"Florida","col":9,"row":8,"label_x":852,"label_y":696.4},"geometry":{"type":"Polygon","coordinates":[[[810,654.4],[894,654.4],[894,738.4],[810,738.4],[810,654.4]]]}},{"type":"Feature","properties":{"st":"GA","fips":"13","name":"Georgia","col":8,"row":7,"label_x":760,"label_y":604.4},"geometry":{"type":"Polygon","coordinates":[[[718,562.4],[802,562.4],[802,646.4],[718,646.4],[718,562.4]]]}},{"type":"Feature","properties":{"st":"HI","fips":"15","name":"Hawaii","col":1,"row":8,"label_x":116,"label_y":696.4},"geometry":{"type":"Polygon","coordinates":[[[74,654.4],[158,654.4],[158,738.4],[74,738.4],[74,654.4]]]}},{"type":"Feature","properties":{"st":"IA","fips":"19","name":"Iowa","col":5,"row":4,"label_x":484,"label_y":328.4},"geometry":{"type":"Polygon","coordinates":[[[442,286.4],[526,286.4],[526,370.4],[442,370.4],[442,286.4]]]}},{"type":"Feature","properties":{"st":"ID","fips":"16","name":"Idaho","col":2,"row":3,"label_x":208,"label_y":236.4},"geometry":{"type":"Polygon","coordinates":[[[166,194.4],[250,194.4],[250,278.4],[166,278.4],[166,194.4]]]}},{"type":"Feature","properties":{"st":"IL","fips":"17","name":"Illinois","col":6,"row":4,"label_x":576,"label_y":328.4},"geometry":{"type":"Polygon","coordinates":[[[534,286.4],[618,286.4],[618,370.4],[534,370.4],[534,286.4]]]}},{"type":"Feature","properties":{"st":"IN","fips":"18","name":"Indiana","col":7,"row":4,"label_x":668,"label_y":328.4},"geometry":{"type":"Polygon","coordinates":[[[626,286.4],[710,286.4],[710,370.4],[626,370.4],[626,286.4]]]}},{"type":"Feature","properties":{"st":"KS","fips":"20","name":"Kansas","col":4,"row":6,"label_x":392,"label_y":512.4},"geometry":{"type":"Polygon","coordinates":[[[350,470.4],[434,470.4],[434,554.4],[350,554.4],[350,470.4]]]}},{"type":"Feature","properties":{"st":"KY","fips":"21","name":"Kentucky","col":6,"row":5,"label_x":576,"label_y":420.4},"geometry":{"type":"Polygon","coordinates":[[[534,378.4],[618,378.4],[618,462.4],[534,462.4],[534,378.4]]]}},{"type":"Feature","properties":{"st":"LA","fips":"22","name":"Louisiana","col":5,"row":7,"label_x":484,"label_y":604.4},"geometry":{"type":"Polygon","coordinates":[[[442,562.4],[526,562.4],[526,646.4],[442,646.4],[442,562.4]]]}},{"type":"Feature","properties":{"st":"MA","fips":"25","name":"Massachusetts","col":10,"row":3,"label_x":944,"label_y":236.4},"geometry":{"type":"Polygon","coordinates":[[[902,194.4],[986,194.4],[986,278.4],[902,278.4],[902,194.4]]]}},{"type":"Feature","properties":{"st":"MD","fips":"24","name":"Maryland","col":9,"row":5,"label_x":852,"label_y":420.4},"geometry":{"type":"Polygon","coordinates":[[[810,378.4],[894,378.4],[894,462.4],[810,462.4],[810,378.4]]]}},{"type":"Feature","properties":{"st":"ME","fips":"23","name":"Maine","col":11,"row":1,"label_x":1036,"label_y":52.4},"geometry":{"type":"Polygon","coordinates":[[[994,10.4],[1078,10.4],[1078,94.4],[994,94.4],[994,10.4]]]}},{"type":"Feature","properties":{"st":"MI","fips":"26","name":"Michigan","col":7,"row":3,"label_x":668,"label_y":236.4},"geometry":{"type":"Polygon","coordinates":[[[626,194.4],[710,194.4],[710,278.4],[626,278.4],[626,194.4]]]}},{"type":"Feature","properties":{"st":"MN","fips":"27","name":"Minnesota","col":5,"row":3,"label_x":484,"label_y":236.4},"geometry":{"type":"Polygon","coordinates":[[[442,194.4],[526,194.4],[526,278.4],[442,278.4],[442,194.4]]]}},{"type":"Feature","properties":{"st":"MO","fips":"29","name":"Missouri","col":5,"row":5,"label_x":484,"label_y":420.4},"geometry":{"type":"Polygon","coordinates":[[[442,378.4],[526,378.4],[526,462.4],[442,462.4],[442,378.4]]]}},{"type":"Feature","properties":{"st":"MS","fips":"28","name":"Mississippi","col":6,"row":7,"label_x":576,"label_y":604.4},"geometry":{"type":"Polygon","coordinates":[[[534,562.4],[618,562.4],[618,646.4],[534,646.4],[534,562.4]]]}},{"type":"Feature","properties":{"st":"MT","fips":"30","name":"Montana","col":3,"row":3,"label_x":300,"label_y":236.4},"geometry":{"type":"Polygon","coordinates":[[[258,194.4],[342,194.4],[342,278.4],[258,278.4],[258,194.4]]]}},{"type":"Feature","properties":{"st":"NC","fips":"37","name":"North Carolina","col":7,"row":6,"label_x":668,"label_y":512.4},"geometry":{"type":"Polygon","coordinates":[[[626,470.4],[710,470.4],[710,554.4],[626,554.4],[626,470.4]]]}},{"type":"Feature","properties":{"st":"ND","fips":"38","name":"North Dakota","col":4,"row":3,"label_x":392,"label_y":236.4},"geometry":{"type":"Polygon","coordinates":[[[350,194.4],[434,194.4],[434,278.4],[350,278.4],[350,194.4]]]}},{"type":"Feature","properties":{"st":"NE","fips":"31","name":"Nebraska","col":4,"row":5,"label_x":392,"label_y":420.4},"geometry":{"type":"Polygon","coordinates":[[[350,378.4],[434,378.4],[434,462.4],[350,462.4],[350,378.4]]]}},{"type":"Feature","properties":{"st":"NH","fips":"33","name":"New Hampshire","col":11,"row":2,"label_x":1036,"label_y":144.4},"geometry":{"type":"Polygon","coordinates":[[[994,102.4],[1078,102.4],[1078,186.4],[994,186.4],[994,102.4]]]}},{"type":"Feature","properties":{"st":"NJ","fips":"34","name":"New Jersey","col":10,"row":4,"label_x":944,"label_y":328.4},"geometry":{"type":"Polygon","coordinates":[[[902,286.4],[986,286.4],[986,370.4],[902,370.4],[902,286.4]]]}},{"type":"Feature","properties":{"st":"NM","fips":"35","name":"New Mexico","col":3,"row":6,"label_x":300,"label_y":512.4},"geometry":{"type":"Polygon","coordinates":[[[258,470.4],[342,470.4],[342,554.4],[258,554.4],[258,470.4]]]}},{"type":"Feature","properties":{"st":"NV","fips":"32","name":"Nevada","col":2,"row":4,"label_x":208,"label_y":328.4},"geometry":{"type":"Polygon","coordinates":[[[166,286.4],[250,286.4],[250,370.4],[166,370.4],[166,286.4]]]}},{"type":"Feature","properties":{"st":"NY","fips":"36","name":"New York","col":9,"row":3,"label_x":852,"label_y":236.4},"geometry":{"type":"Polygon","coordinates":[[[810,194.4],[894,194.4],[894,278.4],[810,278.4],[810,194.4]]]}},{"type":"Feature","properties":{"st":"OH","fips":"39","name":"Ohio","col":8,"row":4,"label_x":760,"label_y":328.4},"geometry":{"type":"Polygon","coordinates":[[[718,286.4],[802,286.4],[802,370.4],[718,370.4],[718,286.4]]]}},{"type":"Feature","properties":{"st":"OK","fips":"40","name":"Oklahoma","col":4,"row":7,"label_x":392,"label_y":604.4},"geometry":{"type":"Polygon","coordinates":[[[350,562.4],[434,562.4],[434,646.4],[350,646.4],[350,562.4]]]}},{"type":"Feature","properties":{"st":"OR","fips":"41","name":"Oregon","col":1,"row":4,"label_x":116,"label_y":328.4},"geometry":{"type":"Polygon","coordinates":[[[74,286.4],[158,286.4],[158,370.4],[74,370.4],[74,286.4]]]}},{"type":"Feature","properties":{"st":"PA","fips":"42","name":"Pennsylvania","col":9,"row":4,"label_x":852,"label_y":328.4},"geometry":{"type":"Polygon","coordinates":[[[810,286.4],[894,286.4],[894,370.4],[810,370.4],[810,286.4]]]}},{"type":"Feature","properties":{"st":"RI","fips":"44","name":"Rhode Island","col":11,"row":3,"label_x":1036,"label_y":236.4},"geometry":{"type":"Polygon","coordinates":[[[994,194.4],[1078,194.4],[1078,278.4],[994,278.4],[994,194.4]]]}},{"type":"Feature","properties":{"st":"SC","fips":"45","name":"South Carolina","col":8,"row":6,"label_x":760,"label_y":512.4},"geometry":{"type":"Polygon","coordinates":[[[718,470.4],[802,470.4],[802,554.4],[718,554.4],[718,470.4]]]}},{"type":"Feature","properties":{"st":"SD","fips":"46","name":"South Dakota","col":4,"row":4,"label_x":392,"label_y":328.4},"geometry":{"type":"Polygon","coordinates":[[[350,286.4],[434,286.4],[434,370.4],[350,370.4],[350,286.4]]]}},{"type":"Feature","properties":{"st":"TN","fips":"47","name":"Tennessee","col":6,"row":6,"label_x":576,"label_y":512.4},"geometry":{"type":"Polygon","coordinates":[[[534,470.4],[618,470.4],[618,554.4],[534,554.4],[534,470.4]]]}},{"type":"Feature","properties":{"st":"TX","fips":"48","name":"Texas","col":4,"row":8,"label_x":392,"label_y":696.4},"geometry":{"type":"Polygon","coordinates":[[[350,654.4],[434,654.4],[434,738.4],[350,738.4],[350,654.4]]]}},{"type":"Feature","properties":{"st":"UT","fips":"49","name":"Utah","col":2,"row":5,"label_x":208,"label_y":420.4},"geometry":{"type":"Polygon","coordinates":[[[166,378.4],[250,378.4],[250,462.4],[166,462.4],[166,378.4]]]}},{"type":"Feature","properties":{"st":"VA","fips":"51","name":"Virginia","col":8,"row":5,"label_x":760,"label_y":420.4},"geometry":{"type":"Polygon","coordinates":[[[718,378.4],[802,378.4],[802,462.4],[718,462.4],[718,378.4]]]}},{"type":"Feature","properties":{"st":"VT","fips":"50","name":"Vermont","col":10,"row":2,"label_x":944,"label_y":144.4},"geometry":{"type":"Polygon","coordinates":[[[902,102.4],[986,102.4],[986,186.4],[902,186.4],[902,102.4]]]}},{"type":"Feature","properties":{"st":"WA","fips":"53","name":"Washington","col":1,"row":3,"label_x":116,"label_y":236.4},"geometry":{"type":"Polygon","coordinates":[[[74,194.4],[158,194.4],[158,278.4],[74,278.4],[74,194.4]]]}},{"type":"Feature","properties":{"st":"WI","fips":"55","name":"Wisconsin","col":6,"row":3,"label_x":576,"label_y":236.4},"geometry":{"type":"Polygon","coordinates":[[[534,194.4],[618,194.4],[618,278.4],[534,278.4],[534,194.4]]]}},{"type":"Feature","properties":{"st":"WV","fips":"54","name":"West Virginia","col":7,"row":5,"label_x":668,"label_y":420.4},"geometry":{"type":"Polygon","coordinates":[[[626,378.4],[710,378.4],[710,462.4],[626,462.4],[626,378.4]]]}},{"type":"Feature","properties":{"st":"WY","fips":"56","name":"Wyoming","col":3,"row":4,"label_x":300,"label_y":328.4},"geometry":{"type":"Polygon","coordinates":[[[258,286.4],[342,286.4],[342,370.4],[258,370.4],[258,286.4]]]}}]}
